X,Y,objectid,codigo_via,pr,distanciap,nombre,administra,territoria,latsig,longsig,cat_1,cat_4,cat_5,cat_6,cat_7,link_foto,sector,cat_2,cat_3,ruleid,a_cargo_de,sentido,ubicacion,telefono_peaje,telefono_grua,eje_adicional,eje_adicional_r,eje_grua,cat_e_ie,cat_8,cat_9,cat_ie_10,cat_iee,cat_ieee,cat_iia,cat_eae,cat_ec,cat_e,cat_ie,cat_iie,cat_iiie,cat_ive,cat_ve,cat_vie,cat_viie,d_cat_i,d_cat_ii,d_cat_iii,d_cat_iv,d_cat_v,d_cat_vi,d_cat_vii,d_cat_viii,d_cat_ix,d_cat_ie10,d_cat_iee,d_cat_ieee,d_cat_iia,d_cat_eg,d_cat_ear,d_cat_ea,d_cat_eae,d_cat_ec,d_cat_e,d_cat_ie,d_cat_iie,d_cat_iiie,d_cat_ive,d_cat_ve,d_cat_vie,d_cat_viie
-75.85886931,4.999048816,3846,2507,24,45,ACAPULCO,CONCESION ANI,RISARALDA,1,-75.85886931,11800,14600,35100,44000,50800,http://hermes.invias.gov.co/carreteras/images/peajes/acapulco.jpg,La Virginia - Remolinos,14600,14600,2,CONCESION PACÍFICO TRES S.A.S  (ODINSA),Aplica en ambos sentidos de circulación,Vía Y de Cerritos  - Cauyá PR2507 Km 24,3219738470,018000423780 – 3219738470,0,0,0,0,0,0,0,0,0,0,0,0,0,0,0,0,0,0,0,0,Categoría I Automóviles y Camperos,Categoría II Camiones y Buses 2 ejes pequeños,Categoría III Camiones y Buses 2 ejes grandes,Categoría IV  3 y 4 ejes,Categoría V 5 Ejes, , , , , , , , ,Categoría Eje Grúa,Categoría Eje Remolque,Categoría Eje Adicional, ,Categoría Eje Cañero, , , , , , , , 
-73.95246216,6.645326476,3937,4511,83,900,AGUAS NEGRAS,INVIAS,SANTANDER,2,1,10900,38800,45600,0,0,https://hermes.invias.gov.co/recursos/Fichas%20Peajes/3937.pdf,Río Ermitaño - La Lizama,13800,32400,5,Concesionaria Ruta Del Sol,Aplica en ambos sentido de circulación,Vía Rio Ermitaño La Lizama Km 84,3165298177,No cuenta con servicio,10200,10000,7300,0,0,0,0,0,0,0,0,0,0,0,0,0,0,0,0,0,Automóviles y Camperos.,Camiones y Buses 2 ejes.,3 ejes.,4 ejes.,5 ejes., , , , , , , , ,Eje Grúa.,Eje Remolque.,Eje adicional., , , , , , , , , , 
-73.58351918,5.29046083,3935,5501,80,2261,ALBARRACIN,CONCESION ANI,BOYACÁ,3,-73.58360233,8000,14150,16650,0,0,http://hermes.invias.gov.co/carreteras/images/peajes/peaje.jpg,Chocontá - Tunja,4350,11400,2,Concesión Briceño - Tunja - Sogamoso,Ambos sentidos de circulación,"Vía Bogotá Tunja KM 82+200, Jurisdicción Villa Pinzón (Cundinamarca)",3203409278,3174422284 // 3174341120 // 3174341030 // 3164086968,8200,6800,5700,0,0,0,0,0,0,0,0,0,0,0,0,0,0,0,0,0,"Automóviles, Camperos y Camionetas","Buses, Busetas y Camiones de 2 ejes",Camiones de tres y cuatro ejes,Vehículos de carga de cinco (5) ejes,Vehículos de carga de seis (6) ejes, , , , , , , , ,Eje Grúa,Eje Remolque,Eje Adicional, , , , , , , , , , 
-75.70059274,2.142914046,3816,4504,497,60,ALTAMIRA,CONCESION ANI,HUILA,4,-75.70075507,8500,24800,27900,0,0,http://hermes.invias.gov.co/carreteras/images/peajes/altamira.jpg,Pitalito - Garzón,9300,19500,2,Concesión Aliadas para El Progreso,Aplica en ambos sentidos de circulación,Vía Pitalito – Garzon Km 60+500 Jurisdicción Municipio de Altamira (Llano de la Virgen),320 995 5541,311 260 50 25  - #296,8700,8400,6400,2400,0,0,0,0,0,0,0,6700,0,2500,5400,0,0,0,0,0,Automóviles y Camperos,Camiones y Buses 2 ejes pequeños,Camiones y Buses 2 ejes grandes,3 y 4 ejes,5 Ejes, , , , , , , , ,Eje Grúa,Eje Remolque,Eje Adicional, , , ,Categoría IE, , , , , , 
-72.54235206,11.44487365,3818,9010,41,170,ALTO PINO,CONCESION ANI,GUAJIRA,5,-72.54242716,9600,18900,27700,44700,56400,http://hermes.invias.gov.co/carreteras/images/peajes/peaje.jpg,Riohacha - Paraguachón,14800,11900,2,Concesión  Santa Marta Paraguachón S.A,Aplica en ambos sentidos de circulación,Ubicación 41+175 Tramo que cubre: VIA  Riohacha - Cuatro Vías,3143300807 - 314 3300807 - (5) 7288542 /43,(5) 728 85 43,0,0,0,4800,0,0,0,0,0,0,0,0,0,5000,7500,0,0,0,0,0,Automóviles y Camperos,Buses y Busetas 2 ejes pequeños,Camiones 350,Camiones 600,3 a 4 Ejes,5 Ejes,6 a mas ejes, , , , , , , , , , , , ,Categoría especial IE,Categoría especial IIE, , , , , 
-74.99163244,4.507598856,3983,4305,19,780,ALVARADO,CONCESION ANI,TOLIMA,6,-74.99163244,10700,12400,26500,36200,39200,http://hermes.invias.gov.co/carreteras/images/peajes/alvarado.jpg,Ibagué - Mariquita,11400,11900,2,Concesionaria Alternativas Viales  S.A.S,"Norte-Sur, y, Sur-Norte","Kilómetro 20+100 metros vía Ibagué-,Mariquita",3506666383 - 3506666384 - 3506666385,350 666-6375 - 350666-6386,0,0,0,7200,0,0,0,0,0,0,0,0,0,7400,0,0,0,0,0,0,Automóviles y Camperos,Buses y Busetas / Camiones pequeños hasta 4.5 toneladas,Camiones y buses 2 ejes grandes,Camiones de 3 y 4 ejes,Camiones de 5 ejes,Camiones de 6 ejes, , , , , , , , , , , , , , , , , , , , 
-75.6598771,6.046953761,3822,6003,89,351,AMAGA,CONCESION ANI,ANTIOQUIA,7,-75.6598771,8600,24400,27400,0,0,http://hermes.invias.gov.co/carreteras/images/peajes/amaga.jpg,La Mansa - Primavera,9000,19200,2,Concesión Vial del Pacífico,Suroeste,Tramo que cubre: Bolombolo - Camilo C,Km. 89+396 Ruta Nacional 6003,3207103032,3207103032,8700,8400,6400,0,0,0,0,0,0,0,0,6700,0,0,4200,9500,0,0,0,0,"Automóviles, Camperos, Pick Up, Camioneta",Camiones y Buses 2 Ejes,Camiones y Buses 2 ejes grandes,3 y 4 ejes,Categoría V, , , , , , , , ,Eje Grúa,Eje Remolque,Eje Adicional, ,Eje Carreño, , ,Categoría IIE,Categoría IIIE, , , 
-74.03307343,4.830120102,3951,5501,2,723,ANDES,CONCESION ANI,CUNDINAMARCA,8,-74.03304393,8700,10800,16450,21250,23550,http://hermes.invias.gov.co/carreteras/images/peajes/peaje.jpg,Bogotá - Chocontá,7400,4700,2,CONCESIÓN ACCENORTE,Sur Norte Aplica Únicamente saliendo de Bogotá,Bogotá – Albarracín Km 2+600,6760652 - 6762948  3125194023 – 3125196546,676 06 52,0,0,0,0,0,0,0,0,0,0,0,0,0,0,14200,0,0,0,0,0,"Categoría I Automóviles, Camperos y Camionetas de servicio público","Categoría II Buses, busetas",Categoría III Camiones pequeños de 2 ejes,Categoría IV Camiones grandes de 2 ejes,Categoría V Camiones de 3 y 4 ejes,Categoría VI Camiones de 5 ejes,Categoría VII Camiones de 6 ejes o más, , , , , , , , , , , , , ,Categoría IIE, , , , , 
-72.30502164,5.410988727,3799,6513,16,800,ARANGUANEY,INVIAS,CASANARE,144,0,7500,21800,24500,0,0, ,Yopal   -  Paz de Ariporo,8100,17200,5,INVÍAS,Bidireccional,Yopal - Paz de Ariporo Km. 16+800,No Tiene,No Tiene,0,0,0,1100,0,0,0,0,0,0,0,0,0,0,1800,0,0,0,0,0,utomóviles y Camperos,Camiones y Buses 2 ejes pequeños,Camiones y Buses 2 ejes grandes,3 y 4 ejes,5 Ejes, , , , , , , , , , , , , , ,Categoría Especial IE,Categoría Especial IIE, , , , , 
-73.47761994,5.795024657,3896,6209,27,700,ARCABUCO,INVIAS,BOYACA,9,1,8600,25300,28400,0,0,https://hermes.invias.gov.co/recursos/Fichas%20Peajes/3896.pdf,Barbosa - Tunja,9300,19900,5,INVIAS,Ambos sentidos de circulación,Vía Barbosa – Tunja Km 27 +650 Jurisdicción Arcabuco,3205221387,No cuenta con servicio,9000,8700,6600,0,0,0,0,0,0,0,0,0,0,0,0,0,0,0,0,0,Automóviles y Camperos,Camiones y Buses 2 ejes pequeños,Camiones y Buses 2 ejes grandes,3 y 4 ejes,5 Ejes, , , , , , , , ,Eje Grúa,Eje adicional remolque,Eje Adicional, , , , , , , , , , 
-75.36516595,10.54696941,3803,9006,19,578,BAYUNCA,CONCESION ANI,BOLÍVAR,10,-75.36516595,8000,26400,30200,0,0,http://hermes.invias.gov.co/carreteras/images/peajes/peaje.jpg,Sabanalarga - Barranquilla,8900,19800,2,Autopistas del sol,Ambos sentidos de circulación,Km 19+400 Cartagena - Santa Catalina Vía La Cordialidad,3212057236,3212057227,8700,8400,6000,0,0,0,0,0,0,0,0,0,0,0,0,0,0,0,0,0,Automóviles y Camperos,Camiones y Buses 2 ejes Pequeños,Camiones y Buses 2 ejes Grandes,3 y 4 Ejes,5 Ejes, , , , , , , , ,Eje grúa,Eje remolque,Eje adicional, , , , , , , , , , 
-75.52654659,10.40678505,3882, ,0,0,BAZURTO  (MANGA),CONVIAL,BOLÍVAR,10.40678505,-75.52654659,2300,9600,14800,0,0,http://hermes.invias.gov.co/carreteras/images/peajes/peaje.jpg,Calle 29,4100,0,4,CONVIAL,Ambos sentidos de circulación,Variante Mamonal - Gambote,(57)(5)6609002 - 6607822 - 6609125,(57) (5)6609002 - 6607822 - 6609125,0,0,0,0,0,0,0,0,0,0,0,0,0,0,0,0,0,0,0,0, , , , , , , , , , , , , , , , , , , , , , , , , , 
-76.25338316,3.972040719,3927,25505,78,131,BETANIA,DEPARTAMENTO,VALLE DEL CAUCA,11,-76.25331342,8200,34000,37700,0,0,http://hermes.invias.gov.co/carreteras/images/peajes/peaje.jpg,Buga - Andalucía,10600,25000,3,PISA Proyectos de Infraestructura S.A., Sur - Norte // Norte - Sur,Vía Cali - Andalucia  Km 78+225,3155602442,3155602442,0,0,0,0,0,0,0,0,0,0,0,0,0,0,0,0,0,0,0,0, , , , , , , , , , , , , , , , , , , , , , , , , , 
-74.68461735,5.203102936,3847,5008,7,975,BICENTENARIO,INVIAS,CUNDINAMARCA,12,1,9300,34200,39800,0,0,https://hermes.invias.gov.co/recursos/Fichas%20Peajes/3847.pdf,Honda - Villeta,12000,28200,5,INVIAS,Ambos sentido de circulación,Villeta - Honda - Guaduas,3232059073,No cuenta con servicio,9000,8700,6600,4500,0,0,0,0,0,0,0,0,0,4200,5700,0,0,0,0,0,Categoría I  Automóviles y Camperos,Categoría II Camiones y Buses 2 ejes pequeños,Categoría III Camiones y Buses 2 ejes grandes,Categoría IV 3 y 4 ejes,Categoría V 5 y 6 ejes, , , , , , , , ,Categoría Eje Grúa,Categoría Eje Remolque,Categoría Eje Adicional, , , ,Categoría IE,Categoría IIE, , , , , 
-74.74328304,5.300139438,8405,4510,7,0,BRISAS,CONCESION ANI,Alto Magdalena,0,0,4800,29500,42000,67700,77500, ,Girardot - Cambao - Honda - Puerto Salgar,16100,22000,2,Concesión Alto Magdalena SAS,(Aplica en ambos sentidos),"Km, 11+000",3219738507,3219738507,,,,,,,,,,,,,,,,,,,,,Automóviles - Camperos - Camionetas,Buses,Camiones pequeños de 2 Ejes,Camiones grandes de 2 Ejes,Camiones de 3 y 4 Ejes,Camiones de 5 Ejes,Camiones de 6 o mas Ejes,,,,,,,,,,,,,,,,,,,
-75.42366144,6.395796515,3878,0,0,0,CABILDO,DEPARTAMENTO,ANTIOQUIA,6.39576885,-75.42355837,9200,15900,26100,34900,39000,http://hermes.invias.gov.co/carreteras/images/peajes/peaje.jpg,Girardota - Hatillo,10200,11100,3, , , ,2892224 - 3108992859,01-8000-522-44-77,0,0,0,0,0,0,0,0,0,0,0,0,0,0,0,0,0,0,0,0,Automóviles y Camperos,Camiones y Buses 2 Ejes pequeños,Camiones y Buses 2 Ejes grandes,3 y 4 ejes,5 ejes,6 ejes,VII, , , , , , , , , , , , , , , , , , , 
-75.606506,9.465677,3934,9004,44,129,CAIMANERA,CONCESION ANI,CORDOBA,9.49011171,-75.59481605,12800,18900,20200,29400,29500,http://hermes.invias.gov.co/carreteras/images/peajes/peaje.jpg,Coveñas  - San Onofre,19800,18900,2,Concesión Ruta al Mar,Sur – Norte,Vía Coveñas – Tolú Km 41+150 (Puerto Viejo),3153483271,3216177100,0,0,0,0,0,0,0,0,0,0,0,0,700,700,700,700,700,700,700,700,"Automóviles ,camperos y camionetas",Buses,Camiones pequeños de 2 ejes,Camiones grandes de 2 ejes,Camiones de 3 y 4 ejes,Camiones 5 ejes,Camiones 6 ejes, , , , , , , , , , , ,"CAT ESPECIAL I, II ,III, IV, V, VI, VII", , , , , , , 
-74.41429469,5.065469603,3868,5008,76,1331,CAIQUEROS,CONCESION ANI,CUNDINAMARCA,13,-74.41408613,9300,36100,41500,0,0,http://hermes.invias.gov.co/carreteras/images/peajes/peaje.jpg,Villeta - Bogotá,12100,30000,2,CONCESIÓN SABANA DE OCCIDENTE,Ambos sentidos de circulación,Km.67+800 Bogotá (El Cortijo) – Siberia – La Punta – El Vino – Villeta,5939260 ---------3185577768---------- 3102613190----------- 3002149460,5939260,9300,8900,6500,2100,0,0,0,0,0,0,0,0,0,2200,0,0,0,0,0,0,"Categoría I Automóviles, Camionetas y Camperos",Categoría II Vehículos de 2 ejes,Categoría III Camiones de 3 y 5 ejes,Categoría IV Camiones de 5 ejes,Categoría V Camiones de 6 ejes o más, , , , , , , , ,Categoría Eje Grúa,Categoría Eje Remolque,Categoría Eje Adicional, , , ,Categoría IE, , , , , , 
-75.50256561,4.435821773,3985,4003,39,50,CAJAMARCA,INVIAS,Tolima,14,1,8800,25700,29000,0,0,https://hermes.invias.gov.co/recursos/Fichas%20Peajes/3985.pdf,Calarcá - Ibagué,9700,20200,5,INVÍAS,NORTE - SUR,Kilómetro 39+800 del tramo Calarcá - Ibagué,3115732369 - 3103295063,No cuenta con el servicio,9000,8700,6600,0,0,0,0,0,0,0,0,0,0,0,0,0,0,0,0,0,Categoría I Automóviles y camperos,Categoría II Buses y Busetas  2 ejes pequeños,Categoría III Camiones y buses  2 ejes grandes,Categoría IV Camiones de 3 y 4 ejes,Categoría V Camiones de 5 ejes, , , , , , , , ,Categoría EJE GRÚA,Categoría EJE REMOLQUE,Categoría EJE ADICIONAL, , , , , , , , , , 
-74.94499546,10.20812679,3950,2515,131,39,CALAMAR,CONCESION ANI,ATLANTICO,15,-74.94499546,8300,24400,27400,0,0,http://hermes.invias.gov.co/carreteras/images/peajes/calamar.jpg,Carreto - Calamar,9000,19200,2,Concesión Montes de Maria,Ambos sentidos de circulación,Km 131 Ruta 2515 Troncal de Occidente,3162954845,3162954845 - #270 Claro,8700,8400,6400,2700,0,0,0,0,0,0,0,0,0,2800,0,0,0,0,0,0,Automóviles y Camperos,Camiones y Buses 2 ejes Pequeños,Camiones y Buses 2 ejes Grandes,3 y 4 Ejes,5 Ejes, , , , , , , , ,Eje grúa,Eje remolque,Eje adicional, , , , , , , , , , 
-74.70381554,5.09244884,3987,4509,5,0,CAMBAO,CONCESION ANI,Alto Magdalena,0,0,9900,25700,36400,59000,67400, ,Tramo que cubre desde Flandes hasta Puerto Salgar,14000,19200,2,Concesión Alto Magdalena,Aplica en ambos sentidos,Km05+892 Ruta 45 Tramo 09,3219738507,3219738507,0,0,0,0,0,0,0,0,0,0,0,0,0,0,0,0,0,0,0,0,Automóviles - Camperos - Camionetas,Buses - Busetas - Microbuses,Camiones pequeños de 2 Ejes,Camiones grandes de 2 Ejes,Camiones de 3 y 4 Ejes,Camiones de 5 Ejes,Camiones de 6 o mas Ejes, , , , , , , , , , , , , , , , , , , 
-77.28445244,1.425456082,3862,2502,36,0,CANO,INVIAS,NARIÑO,16,1,10400,0,0,0,0,https://hermes.invias.gov.co/recursos/Fichas%20Peajes/3862.pdf,San Juan de Pasto - Cano,11100,0,5,INVIAS,Norte – Sur,Vía Pasto – Mojarras Km 36 Jurisdicción del municipio de Chachagui,No tiene,No cuenta con servicio,,9800,6700,0,0,0,0,0,0,0,0,0,0,0,0,0,0,0,0,0,Categoría I Automóviles y camperos,Categoría II Camiones y buses 2 ejes pequeños, , , , , , , , , , , ,Categoría Eje Grúa,Categoría Eje Remolque,Categoría Eje Adicional, , , , , , , , , , 
-75.4848211,8.604856112,3821,2514,26,300,CARIMAGUA,INVIAS,CORDOBA,17,1,12500,18100,32800,52100,60100,https://hermes.invias.gov.co/recursos/Fichas%20Peajes/3821.pdf,Planeta Rica - La Ye,18100,18100,5,INVIAS,Sur – Norte,Vía Planeta Rica - Sincelejo Km 26 + 300,3102467110 - 3205221762,No cuenta con servicio,0,0,0,0,0,0,0,0,0,0,0,0,0,0,0,0,0,0,0,0,Automóviles y Campero,Camiones y Buses 2 ejes Pequeños,Camiones y Buses 2 ejes Grandes,3 y 4 Ejes,5 Ejes,6 Ejes,7 Ejes, , , , , , , , , , , , , , , , , , , 
-73.91282774,5.104394194,3990,45A04,40,0,CASABLANCA,INVIAS,CUNDINAMARCA,18,1,8500,29600,34600,0,0,https://hermes.invias.gov.co/recursos/Fichas%20Peajes/3990.pdf,Bogotá - Ubaté,9200,23800,5,INVIAS,Sur – Norte // Norte – Sur,Cogua – Tausa Km 40+000,No tiene,No hay,10200,10000,7000,0,0,0,0,0,0,0,0,0,0,0,0,0,0,0,0,0,Categoría I Automóviles y Camperos,Categoría II Camiones y Buses 2 ejes pequeños,Categoría III Camiones y Buses 2 ejes grandes,Categoría IV 3 y 4 ejes,Categoría V 5 Ejes, , , , , , , , ,Categoría Eje Grúa,Categoría Eje Adicional Remolque,Categoría Eje Adicional, , , , , , , , , , 
-72.83478884,4.112654617,3876,4008,16,237,CASETABLA,CONCESION ANI,META,19,-72.83478884,4400,4800,19700,25000,28100,http://hermes.invias.gov.co/carreteras/images/peajes/casetabla.jpg,Puerto López - Puerto Gaitán,4800,4800,2,Concesión Autopistas de los Llanos,Oriente,Vía Puerto López – Puerto Gaitán Km 16+250,3102466017,018000918624 Operadores Claro – Movistar #765,0,0,0,0,0,0,0,0,0,0,0,0,0,0,0,0,0,0,0,0,Automóviles y Camperos,Camiones y Buses 2 ejes pequeños,Camiones y Buses 2 ejes grandes,3 y 4 ejes,5 Ejes,CAT VI,CAT VII, , , , , , , , , , , , , , , , , , , 
-75.50592218,10.38301611,3881, ,0,0,CEBALLOS,DISTRITO,BOLÍVAR,10.38301611,-75.50592218,2500,9600,14800,0,0,http://hermes.invias.gov.co/carreteras/images/peajes/peaje.jpg,Corredor de Carga,4100,0,4,CONVIAL,Ambos sentidos de circulación,Variante Mamonal - Gambote,(57) (5)6609002 - 6607822 - 6609125,(57) (5)6609002 - 6607822 - 6609125,0,0,0,0,0,0,0,0,0,0,0,0,0,0,0,0,0,0,0,0, , , , , , , , , , , , , , , , , , , , , , , , , , 
-76.46257073,3.557383478,5604,2301,0,0,CENCAR,INVIAS,VALLE DEL CAUCA,20,1,8900,37700,43400,0,0,https://hermes.invias.gov.co/recursos/Fichas%20Peajes/5604.pdf,Cali - Yumbo,10700,28900,5,INVIAS,Sur - Norte // Norte - Sur,Vía Yumbo – Aeropuerto Km 2+950,No cuenta con número,No cuenta con servicio,10700,21200,6600,4600,,,,,,,,6600,,,4900,,,,,,Automóviles y Camperos,Camiones y Buses 2 ejes pequeños,Camiones y Buses 2 ejes grandes,3 y 4 ejes,5 Ejes,,,,,,,,,Eje Grúa,Eje Adicional Remolque,Eje Adicional,,Eje Cañero,,CAT IE,CAT IIE,,,,,
-75.85996286,4.793408209,3919,2506,85,867,CERRITOS II,INVIAS,RISARALDA,22,1,12500,46300,52900,0,0,http://hermes.invias.gov.co/carreteras/images/peajes/peaje.jpg,La Victoria - Cartago - Cerritos,14300,35300,5,Concesionaria de Occidente,Sur – Norte,Vía Andalucía – Y de Cerritos PR2506 Km 86,3128509233 - 3113042754 - 3132158,No cuenta con servicio,15800,15600,10700,2700,0,0,0,0,0,0,0,0,0,2600,9300,0,0,0,0,0,Categoría I Automóviles y Camperos,Categoría II Camiones y Buses 2 ejes pequeños,Categoría III Camiones y Buses 2 ejes grandes,Categoría IV 3 y 4 ejes,Categoría V 5 Ejes, , , , , , , , ,Categoría Eje Grúa,Categoría Eje Adicional Remolque,Categoría Eje Adicional, , , ,Categoría Especial IE,Categoría Especial IIE, , , , , 
-74.88048437,4.245525822,3923,4004B,0,6493,CHICORAL,CONCESION ANI,TOLIMA,23,-74.88050851,11200,14600,29500,39400,43400,http://hermes.invias.gov.co/carreteras/images/peajes/peaje.jpg,Variante Chicoral,12200,11200,2,Concesionaria San Rafael  S.A.,Aplica en ambos sentidos de circulación,Km. 17+0350 de la ruta 4004B que corresponde a la vía Variante de Chicoral,3138863287,3212087489,10100,9900,7100,5900,0,0,0,0,0,0,0,0,0,0,0,0,0,0,0,0,Categoría I Automóviles y Camperos,Categoría II Camiones y Buses 2 ejes pequeños,Categoría III Camiones y Buses 2 ejes grandes,Categoría IV 3 y 4 ejes,Categoría V 5 Ejes,Categoría VI 6 Ejes,Categoría VII, , , , , , ,Categoría Eje Grúa,Categoría Eje Adicional Remolque,Categoría Eje Adicional, , , ,Categoría Especial IE, , , , , , 
-74.50010709,4.269378399,3991,4005,51,1059,CHINAUTA,CONCESION ANI,CUNDINAMARCA,24,-74.50011468,10700,41800,48100,0,0,http://hermes.invias.gov.co/carreteras/images/peajes/peaje.jpg,Girardot - Silvania - Bogotá (Bosa),12000,25700,2,Concesión Vía 40 Express, Sur - Norte // Norte - Sur,Soacha – Girardot Km 52,3104224687 - 3117872339 - 3117903187,3104224687 - 3117872339 - 3117903187,10100,9800,6600,2700,0,0,0,0,0,0,0,0,0,2600,0,0,0,0,0,0,Categoría I Automóviles y Camperos,Categoría II Camiones y Buses 2 ejes pequeños,Categoría III Camiones y Buses 2 ejes grandes,Categoría IV,Categoría V 5 Ejes, , , , , , , , ,Eje Grúa,Eje Adicional Remolque,Eje Adicional, , , ,Categoría IE, , , , , , 
-74.27182138,4.537533598,3815,4005,109,217,CHUSACA,CONCESION ANI,CUNDINAMARCA,25,-74.27192598,10700,41800,48100,0,0,http://hermes.invias.gov.co/carreteras/images/peajes/peaje.jpg,Girardot - Silvania - Bogotá (Bosa),12000,25700,2,Concesión  Vía 40 Express, Sur - Norte // Norte - Sur,Soacha – Girardot Km 109, 3104224687 - 3117872339 - 3117903187,3104224687 - 3117872339 - 3117903187,10100,9800,6600,0,0,0,0,0,0,0,0,0,0,0,0,0,0,0,0,0,Automóviles y camperos.,Camiones y Buses  dos  ejes pequeños.,Camiones y Buses  dos  ejes Grandes.,Categoría IV,Categoría V Cinco ejes., , , , , , , , ,Eje Grúa.,Eje Remolque.,Eje Adicional., , , , , , , , , , 
-76.34316373,3.523539983,5204,2505,16,344,CIAT,INVIAS,VALLE DEL CAUCA,26,1,9000,37800,43500,0,0,https://hermes.invias.gov.co/recursos/Fichas%20Peajes/5204.pdf,Cali - Palmira - Buga,10800,29200,5,INVIAS,Norte – Sur,Vía Cali – Andalucía Km 17+300,No cuenta con número,No cuenta con servicio,10700,21200,6600,4700,,,,,,,,6600,,,8000,,,,,,Categoría I Automóviles y Camperos,Camiones y Buses 2 ejes pequeños,Camiones y Buses 2 ejes grandes,3 y 4 ejes,5 Ejes,,,,,,,,,Eje Grúa,Eje Remolque,Eje Adicional,,Eje Cañero,,Eje Especial I,Eje Especial II,,,,,
-75.60610872,4.698355839,3866,2901,15,1723,CIRCASIA,CONCESION ANI,QUINDÍO,27,-75.60612749,13800,17600,42900,52600,58600,http://hermes.invias.gov.co/carreteras/images/peajes/peaje.jpg,Armenia-Pereira,17600,17600,2,Concesión Autopistas del café,Norte Sur y Sur Norte,Vía Armenia - Pereira Km. 16+750,(6) 3282720 3138176567 #850,602 22 33,0,0,0,0,0,0,0,0,0,0,0,0,0,0,0,0,0,0,0,0,Categoría I Automóviles y Camperos,Categoría II Camiones y Buses 2 ejes pequeños,Categoría III Camiones y Buses 2 ejes grandes,Categoría IV 3 y 4 ejes,Categoría V 5 Ejes,Categoría VI 6 Ejes,Categoría VII, , , , , , , , , , , , , , , , , , , 
-76.74413654,8.21002779,10406,9001,18,70,CIRILO,ANI,Antioquia,0,0,9000,9900,20500,26500,29700, ,Vía Turbo - Necoclí,9900,9900,2,Concesión Autopistas Urabá,Norte - Sur. Sur - Norte,Vía turbo - Necoclí,3105553979 // #979,3105553979 // #979,,,,,,,,,,,,,,,,,,,,,Categoría I,Categoría II,Categoría III,Categoría IV,Categoría V,Categoría VI,Categoría VII,,,,,,,,,,,,,,,,,,,
-75.07477738,6.536330315,3961,6206,1,240,CISNEROS,CONCESION ANI,ANTIOQUIA,28,-75.07477738,8300,8900,18800,23900,27000,http://hermes.invias.gov.co/carreteras/images/peajes/cisneros.jpg,Cisneros - Alto de Dolores,8900,8900,2,Concesión Vías del Nus – VINUS S.A.S,Aplica en ambos sentidos. Tramo que cubre: Cisneros - Antes de la entrada a la vía secundaria hacia,KM 03+000 RUTA 6206. Via Cisneros - Puerto Berrio,321 812 2264,311 739 5570 – 018000413724 – (4) 8603102,8700,8400,6400,1600,0,0,0,0,0,0,0,0,0,1700,1900,0,0,0,0,0,Categoría I (Automóviles y Camperos),Categoría II Camiones y Buses 2 Ejes pequeños,Categoría III - Camiones y Buses 2 Ejes grandes,Categoría IV - 3 y 4 ejes,Categoría V - 5 ejes,Categoría VI,Categoría VII, , , , , , , , , , , , ,Eje Especial IE,Eje Especial IIE, , , , , 
-75.24303963,6.124607098,3861,6005,3,95,COCORNA,INVIAS,ANTIOQUIA,29,1,12600,21600,43200,61600,61600,https://hermes.invias.gov.co/recursos/Fichas%20Peajes/3861.pdf,Santuario - Cruce Ruta 45 (Caño Alegre),19800,17300,5,INVIAS,Sur – Norte,KM 03+100 RUTA 6005 Via Santuario - Puerto Triunfo,No cuenta con número,3208360300 - 3212059197,0,0,0,1000,0,0,0,0,0,0,0,0,0,0,1000,1000,1000,1000,0,0,"Categoria I (Automóviles, camperos y camionetas)",Categoría II Buses,Categoría III - Camiones pequeños de 2 ejes,Categoría III - Camiones grandes de 2 ejes,Categoría V - Camiones de 3 y 4 ejes,Categoría VI - Camiones de 5 ejes,Categoría VII - Camiones de 6 ejes, , , , , , , , , , , , ,Categoría IE, , , , , , 
-75.89987074,4.407960397,3840,4002,21,1604,COROZAL,CONCESION ANI,VALLE DEL CAUCA,30,-75.89991018,10400,12600,30700,38400,44600,http://hermes.invias.gov.co/carreteras/images/peajes/peaje.jpg,La Paila - Club Campestre,12600,12600,2,AUTOPISTAS DEL CAFÉ, Sur - Norte // Norte - Sur,Vía La Paila - Armenia Km 23,(6) 3282720,3138176567 #850,0,0,0,0,0,0,0,0,0,0,0,0,0,0,0,0,0,0,0,0,Automóviles y Camperos,Camiones y Buses 2 ejes pequeños,Camiones y Buses 2 ejes grandes,3 y 4 ejes,5 Ejes,6 Ejes,Categoría VII, , , , , , , , , , , , , , , , , , , 
-75.48508679,10.30965871,3806,90BLB,26,328,CORRALITO DE PIEDRA,DISTRITO,BOLÍVAR,10.30964816,-75.4852048,7900,23700,27400,27400,27400,http://hermes.invias.gov.co/carreteras/images/peajes/peaje.jpg,Vía a Barú,8500,18100,4,CONVIAL,Ambos sentidos de circulación,Variante Mamonal - Gambote,(57) (5)6609002 - 6607822 - 6609125,(57) (5)6609002 - 6607822 - 6609125,0,0,0,2900,0,0,0,0,0,0,0,0,0,0,0,7200,0,0,0,0, , , , , , , , , , , , , , , , , , , , , , , , , , 
-74.7667594,10.95782386,4004, ,0,0,CORREDOR PORTUARIO,DISTRITO,ATLANTICO,10.95782386,-74.7667594,6400,20000,22200,0,0,http://hermes.invias.gov.co/carreteras/images/peajes/peaje.jpg,Calle 6,7100,,4,,,,,,,,,,,,,,,,,,,,,,,,,,,,,,,,,,,,,,,,,,,,,,,,,,,
-77.26949651,1.282159377,3865,2502,14,400,DAZA,INVIAS,NARIÑO,34,1,0,30200,34900,0,0,https://hermes.invias.gov.co/recursos/Fichas%20Peajes/3865.pdf,San Juan de Pasto - Cano,0,23000,5,INVIAS,Norte – Sur,Vía Pasto – Mojarras Km 13 Jurisdicción municipio de Pasto Sector Daza,No tiene,No cuenta con servicio,10100,9800,6700,0,0,0,0,0,0,0,0,0,0,0,0,0,0,0,0,0, , ,Categoría III Camiones y buses 2 ejes grandes,Categoría IV 3 y 4 ejes,Categoría V 5 ejes, , , , , , , , ,Categoría Eje Grúa,Categoría Eje Remolque,Categoría Eje Adicional, , , , , , , , , , 
-75.67134454,6.338603341,3825, ,0,0,EBEJICO,DEPARTAMENTO,ANTIOQUIA,35,-75.67134454,7700,23700,26700,0,0,http://hermes.invias.gov.co/carreteras/images/peajes/peaje.jpg,Puente Aurrá - Medellín (Vía Antigua al Mar),9200,19300,3, , , , , ,0,0,0,0,0,0,0,0,0,0,0,0,0,0,0,0,0,0,0,0, , , , , , , , , , , , , , , , , , , , , , , , , , 
-74.07337975,4.452540053,3910,4006,4,122,EL BOQUERON I,CONCESION ANI,CUNDINAMARCA,36,-74.07337975,11900,47100,52900,58800,70500,http://hermes.invias.gov.co/carreteras/images/peajes/peaje.jpg,Bogotá (El Portal) - Villavicencio,35300,17800,2,COVIANDINA S.A.S.,Occidente – Oriente // Oriente – Occidente,Caqueza – Guayabetal Km 4+100,3123063223 - 3123030336 – 3105851322,3143722765,0,0,0,400,0,0,0,1600,6100,0,0,0,0,400,11500,400,0,0,0,0,Categoría I Automóviles y Camperos,Categoría II  Camiones y buses 2 ejes pequeños,Categoría III  Camiones y buses 2 ejes grandes,Categoría IV  3 y 4 Ejes,Categoría V  5 Ejes,Categoría VI  6 Ejes,Categoría VII, , , ,Categoría IEE,Categoría IEEE, , , , , , , ,Categoría IE,Categoría IIE,Categoría IIIE, , , , 
-76.85116469,2.18894946,3975,2503,61,300,EL BORDO,INVIAS,CAUCA,37,1,8800,25700,29000,0,0,https://hermes.invias.gov.co/recursos/Fichas%20Peajes/3975.pdf,Mojarras - Popayán,9700,20200,5,INVIAS,Sur – Norte // Norte – Sur,Kilometro 60+800 Vía Panamericana Mojarras – Popayan,3112363938 / 2800138,No cuenta con servicio,9000,8700,6600,0,0,0,0,0,0,0,0,0,0,0,0,0,0,0,0,0,Categoría I Automóviles y camperos,Categoría II Camiones y buses 2 ejes pequeños,Categoría III Camiones y buses 2 ejes grandes,Categoría IV 3 y 4 ejes,Categoría V 5 ejes, , , , , , , , ,Categoría Eje Grúa,Categoría Eje Remolque,Categoría Eje Adicional, , , , , , , , , , 
-75.12542106,9.681300323,3849,2515,60,667,EL CARMEN,CONCESION ANI,BOLIVAR,38,-75.12542106,8800,25600,28800,0,0,http://hermes.invias.gov.co/carreteras/images/peajes/el_carmen.jpg,Puerta de Hierro - Carreto,9600,20100,2,Autopista de la sabana,Ambos sentidos de circulación,Km 70+500 Troncal de Occidente Ruta 2515 Vía Sincelejo – Calamar,3162954845,3162954845 - #270 Claro,8700,8400,6400,1400,0,0,0,0,0,0,0,0,0,1400,1400,0,0,0,0,0,Automóviles y Camperos,Camiones y Buses 2 ejes Pequeños,Camiones y Buses 2 ejes Grandes,3 y 4 Ejes,5 Ejes, , , , , , , , ,Eje grúa,Eje remolque,Eje adicional, , , ,Categoría especial IE,Categoría especial IIE, , , , , 
-76.31916131,3.713096157,5605,2505,44,893,EL CERRITO,INVIAS,VALLE DEL CAUCA,21,1,8900,37700,43400,0,0,https://hermes.invias.gov.co/recursos/Fichas%20Peajes/5605.pdf,Cali - Palmira - Buga,10700,28900,5,INVIAS,Sur - Norte // Norte - Sur,Vía Cali - Andalucia Km 43+200,No cuenta con número,No cuenta con servicio,10700,21200,6600,,,,,,,,,6600,,,,,,,,,Categoría I Automóviles y Camperos,Categoría II Camiones y Buses 2 ejes pequeños,Categoría III Camiones y Buses 2 ejes grandes,Categoría IV 3 y 4 ejes,Categoría V 5 Ejes,,,,,,,,,Eje Grúa,Eje Adicional Remolque,Eje Adicional,,Eje Cañero,,,,,,,,
-73.92382887,10.0603631,3809,4517,10,448,EL COPEY,CONCESION ANI,CESAR,39,-73.92382887,7900,26700,30900,0,0,http://hermes.invias.gov.co/carreteras/images/peajes/peaje.jpg,Bosconia - Río Ariguaní,8700,20300,2,Yuma concecionaria,Sur – Norte,Km 10+300 Vía Bosconia – Rio Ariguani,3165280504,018000945566 Opción 1,9500,9100,6500,0,0,0,0,0,0,0,0,0,0,0,0,10300,13500,15600,0,0,Automóviles y camperos,Camiones y buses 2 ejes pequeños,Camiones y buses 2 ejes grandes,3 y 4 Ejes,5 Ejes, , , , , , , , ,Eje grúa,Eje adicional remolque,Eje adicional, , , , , , , , , , 
-74.29116513,4.748678791,3966,5008A,56,1022,EL CORZO,CONCESIÓN ANI,CUNDINAMARCA,31,-74.29116513,8000,13900,23600,31900,34500,http://hermes.invias.gov.co/carreteras/images/peajes/peaje.jpg,Los Alpes - Madrid - Bogotá (Rio Bogotá),12000,10400,2,CONCESIÓN CCFC S.A,Occidente - Oriente Faca  - Bogota,Peaje Río Bogotá – Facatativá – Villeta – Vianí – Cambao Km 17 Jurisdicción del Municipio de Madrid,"3792200 – 8930977 300 2134184 - 310 3042774 - #235 Tigo, Movistar y Claro",(571) 893 09 77,0,0,0,200,0,0,0,0,0,0,0,0,200,200,200,200,200,200,200,200,Categoría I Automóviles y Camperos,Categoría II Camiones y Buses 2 ejes pequeños,Categoría III Camiones y Buses 2 ejes grandes,Categoría IV 3 y 4 ejes,Categoría V 5 Ejes,Categoría VI 6 Ejes,Categoría VII, , , , , , , , , , , ,Categoría Especial,Categoría Especial I,Categoría Especial II,Categoría Especial III,Categoría Especial IV,Categoría Especial V,Categoría Especial VI, 
-72.92697305,5.65701412,3875,6211,13,150,EL CRUCERO,INVIAS,BOYACA,32,1,8600,25300,28400,0,0,https://hermes.invias.gov.co/recursos/Fichas%20Peajes/3875.pdf,Sogamoso - El Crucero,9300,19900,5,INVIAS,Ambos sentidos de circulación,Via Sogamoso Yopal Km 8+900  Jurisdiccion Sogamoso,3102455402-3134819171,No cuenta con servicio,9000,8700,6600,2200,0,0,0,0,0,0,0,0,0,2000,2400,0,0,0,0,0,"Automóviles, camperos, camionetas y microbuses con ejes de llanta sencilla","Buses, busetas, microbuses con eje trasero de doble llanta y camiones de dos ejes.",Vehículos de pasajeros y de carga de tres y cuatro ejes,Vehículos de carga de cinco ejes.,Vehículos de carga de seis ejes., , , , , , , , ,Eje Grúa,Eje Remolque,Eje Adicional, , , ,CAT ESPECIAL IE,CAT ESPECIAL IIE, , , , , 
-74.2677508,9.831146645,3827,8002,67,175,EL DIFICIL,CONCESION ANI,MAGDALENA,40,-74.2677508,9200,34100,36600,0,0,http://hermes.invias.gov.co/carreteras/images/peajes/peaje.jpg,Plato – Pueblo Nuevo,11400,24100,2,Concesión (Yuma),Sur – Norte,KM 67+300 Plato – Pueblo Nuevo,3165298176,018000945566 Opción 1,9000,8700,6500,0,0,0,0,0,0,0,0,0,2600,2700,0,0,0,0,0,0,Automóviles y Camperos,Camiones y Buses  2 ejes,3 y 4 Ejes,5 Ejes,6 Ejes, , , , , , , , ,Eje Grua,Eje Remolque,Eje Adicional, , ,CAT ESPECIAL E, , , , , , , 
-73.12210778,11.27621663,3845,9009,955,53,EL EBANAL,CONCESION ANI,GUAJIRA,41,-73.12210778,9600,18900,27700,44700,56400,http://hermes.invias.gov.co/carreteras/images/peajes/peaje.jpg,Río Palomino - Riohacha,14800,11900,2,Concesión  Santa Marta - Paraguachón S.A .,Aplica en ambos sentidos de circulación,Ubicación: 53+950 Tramo que cubre:Vía Riohacha - Palomino,3143300807 - 3143300807 - (5) 7288542 /43,(5) 728 85 43,0,0,0,4800,0,0,0,0,0,0,0,0,0,5000,7500,0,0,0,0,0,Automóviles y Campero,Buses y Busetas 2 ejes Pequeños,Camiones 350,Camiones 600,3 a 4 Ejes,5 Ejes,6 a mas ejes, , , , , , , , , , , , ,Categoría especial IE,Categoría especial IIE, , , , , 
-72.46945002,7.91059804,3833,0,0,0,EL ESCOBAL,CONCESION ANI,N. DE SANTANDER,42,-72.46945002,2000,2000,2000,0,0,http://hermes.invias.gov.co/carreteras/images/peajes/peaje.jpg,Avenida Demetrio  Mendoza,2000,2000,2,Concesionaria San Simón S.A,Sentido Ureña (Venezuela)-Cúcuta,Avenida Demetrio Mendoza vía a Ureña,(7) 5767878,320 345 2139,2000,0,2000,0,0,0,0,0,0,0,0,0,0,0,0,0,0,0,0,0,Automoviles y Camperos,Camiones y buses 2 ejes pequeños,Camiones y buses 2 ejes grandes,3 y 4 ejes,5 Ejes, , , , , , , , ,Eje Grua,Eje adicional remolque,Eje Adicional, ,Eje Carreño, , , , , , , , 
-74.61372959,5.497131704,3852,5008B,0,0,EL KORAN,CONCESION ANI,CUNDINAMARCA,5.49727588,-74.61350965,12800,53100,66000,78300,0,http://hermes.invias.gov.co/carreteras/images/peajes/peaje.jpg,El Korán - Guaduas,18000,25400,2,CONCESIÓN HELIOS,Sur – Norte Variante Guaduas - Intersección Koran, Bogotá – Medellín - Norte,(1) 5188489,3185166166 / 018000914181,9100,8800,6500,2700,0,0,0,0,0,0,0,0,0,2800,2800,0,0,0,0,0,Categoría I Automóviles y Camperos,Categoría II Camiones y Buses 2 ejes pequeños,Categoría III Camiones y Buses 2 ejes grandes,Categoría IV 3 y 4 ejes,Categoría V 5 Ejes,Categoría VI 6 Ejes, , , , , , , ,Eje Grúa,Eje Adicional Remolque,Eje Adicional, , , ,Categoría Especial IE,Categoría Especial IIE, , , , , 
-75.20373348,3.393809788,3946,4506,53,376,EL PATA,CONCESION ANI,HUILA,43,-75.20373348,11700,20200,34400,44200,50100,http://hermes.invias.gov.co/carreteras/images/peajes/peaje.jpg,Neiva - Natagaima,14100,15800,2,Concesión Autovía Neiva – Girardot,Aplica en ambos sentidos de circulación,Vía Neiva – Castilla Km 54+400 Jurisdicción de Aipe,3103424699 3153340727 – 3174340907,667 10 30,0,0,0,0,0,0,0,0,0,0,0,0,0,0,0,0,0,0,0,0,Automóviles y Camperos,Camiones y Buses 2 ejes pequeños,Camiones y Buses 2 ejes grandes,3 y 4 ejes,5 Ejes,6 Ejes,Categoría VII, , , , , , , , , , , , , , , , , , , 
-77.4086552,1.087284102,3918,2501,56,81,EL PLACER,CONCESION ANI,NARIÑO,44,-77.4086552,10300,29900,34500,0,0,http://hermes.invias.gov.co/carreteras/images/peajes/peaje.jpg,Puente Internacional Rumichaca - San Juan de Pasto,10800,22900,2,Concesionaria Víal Uníon del Sur,Aplica en ambos sentidos de circulación,A un Kilometro del Municipio de Tangua Km. 56+050,3173682092 – 3173310921,"Móvil1: 3174275839, atiende los municipios Ipiales, Contadero e Iles Móvil 2: 3174042366, atiende a los Municipios de Imués, Yacuanquer, Tangua y Pasto",0,0,0,0,0,0,0,0,0,0,0,0,0,0,0,0,0,0,0,0,Automóviles y camperos,"Buses, Busetas y Camiones",Camiones 3 y 4 ejes,5 Ejes,6 ejes, , , , , , , , , , , , , , , , , , , , , 
-73.8398406,5.031298851,3826,5501,0,0,EL ROBLE,CONCESION ANI,CUNDINAMARCA,45,-73.83964748,8000,14150,16650,0,0,http://hermes.invias.gov.co/carreteras/images/peajes/peaje.jpg,Bogotá - Chocontá,4350,11400,2,CONCESIÓN BRICEÑO – TUNJA – SOGAMOSO,Sur – Norte // Norte – Sur,Bogotá – Albarracín Km 36,3203409278,3174422284 // 3174341120 //  3174341030 // 3164086968,8200,6800,5700,4000,0,0,0,0,0,0,0,0,0,4300,0,0,0,0,0,0,"Automóviles, Camperos y Camionetas","Buses, Busetas  y Camiones de 2 ejes",Camiones de tres y cuatro ejes,Camiones de cinco ejes,Camiones de seis ejes,, , , , , , , ,Eje Grúa,Eje Adicional Remolque,Eje Adicional, , , , , , , , , , 
-76.04953245,4.665424977,3872,2302,106,0,EL TORO,INVIAS,VALLE DEL CAUCA,127,1,8600,25300,28400,0,0,https://hermes.invias.gov.co/recursos/Fichas%20Peajes/3872.pdf,Mediacanoa - Ansermanuevo,9300,19900,5,INVIAS, Sur - Norte // Norte - Sur,Vía Mediacanoa - Ansermanuevo Km 109,3102454238,No cuenta con servicio,9000,8700,6600,2500,0,0,0,0,0,0,0,7000,0,2300,0,0,0,0,0,0,Automóviles y Camperos,Camiones y Buses 2 ejes pequeños,Camiones y Buses 2 ejes grandes,3 y 4 ejes,5 Ejes, , , , , , , , ,Categoría Eje Grúa,Categoría Eje Rmolque,Categoría Eje Adicional, ,Categoría Eje Cañero, ,CAT ESPECIAL IE, , , , , , 
-72.1692533,4.351317469,3859,4008,5,175,El YUCAO,CONCESION ANI,META,137,-72.16931981,4400,4800,19700,25000,28100,http://hermes.invias.gov.co/carreteras/images/peajes/peaje.jpg,Puerto López - Puerto Gaitán,4800,4800,2,Concesión Autopistas de los Llanos,Oriente,Vía Puerto López - Puerto Gaitán Km.99+200,3102466052,018000918624 Operadores Claro - Movistar #765,0,0,0,0,0,0,0,0,0,0,0,0,0,0,0,0,0,0,0,0,Automóviles y Camperos,Camiones y Buses 2 ejes pequeños,Camiones y Buses 2 ejes grandes,3 y 4 ejes,5 Ejes,CAT VI,CAT VII, , , , , , , , , , , , , , , , , , , 
-76.44302716,3.500722199,4804,2505,4,954,ESTAMBUL,INVIAS,VALLE DEL CAUCA,46,1,9000,37800,43500,0,0,https://hermes.invias.gov.co/recursos/Fichas%20Peajes/4804.pdf,Cali - Palmira - Buga,10800,29200,5,INVIAS,Sur - Norte,Vía Cali – Andalucía Km 5,No cuenta con número,No cuenta con servicio,10700,21200,6600,4700,,,,,,,,6600,,,8000,,,,,,Automóviles y Camperos,Camiones y Buses 2 ejes pequeños,Camiones y Buses 2 ejes grandes,3 y 4 ejes,5 Ejes,,,,,,,,,Eje Grúa,Eje Remolque,Eje Adicional,,Eje Cañero,,Eje Especial I,Eje Especial II,,,,,
-74.8610865,4.192173107,3844,4507,47,1640,FLANDES,CONCESION ANI,TOLIMA,47,-74.8610865,11700,19900,33300,42700,48600,http://hermes.invias.gov.co/carreteras/images/peajes/peaje.jpg,El Espinal - Girardot,13900,15600,2,Concesión Autovía Neiva - Girardot,Aplica en ambos sentidos de circulación,Km. 4 Vía Espinal - Girardot,3103424699 3153340727 – 3174340907,667 10 30,0,0,0,7000,0,0,0,0,0,0,0,0,0,7400,0,0,0,0,0,0,Categoría I Automóviles y Camperos,Categoría II Camiones y Buses  2 ejes pequeños,Categoría III Camiones y Buses 2 ejes grandes,Categoría IV 3 y 4 ejes,Categoría V 5 Ejes,Categoría VI 6 Ejes,Categoría VII, , , , , , , , , , , , ,Categoría Especial IE, , , , , , 
-74.02880975,4.835449673,3871,45A04,3,921,FUSCA,CONCESION ANI,CUNDINAMARCA,49,-74.02887144,8700,10800,16450,21250,22550,http://hermes.invias.gov.co/carreteras/images/peajes/peaje.jpg,Bogotá - Ubaté,7400,4700,2,CONCESIÓN ACCENORTE,Sur – Norte Aplica Únicamente saliendo de Bogotá,Bogotá – Albarracín Km 4,6760652  Opc 1 - 3125194023 – 3125196546,676 06 52,0,0,0,0,0,0,0,0,0,0,0,0,0,0,14200,0,0,0,0,0,"Categoría I Automóviles, Camperos y Camionetas de servicio público","Categoría II Buses, busetas",Categoría III Camiones pequeños de 2 ejes,Categoría IV Camiones grandes de 2 ejes,Categoría V Camiones de 3 y 4 ejes,Categoría VI Camiones de 5 ejes,Categoría VII Camiones de 6 ejes o más, , , , , , , , , , , , , , , , , , , 
-74.9021277,10.83754487,3805,9006,101,927,GALAPA,CONCESION ANI,ATLANTICO,50,-74.90209813,13000,24800,77400,103500,114800,http://hermes.invias.gov.co/carreteras/images/peajes/peaje.jpg,Sabanalarga - Barranquilla,19500,14100,2,Autopista del Sol,Ambos sentidos de circulación,Vía Cordialidad Km 98,3212057229,3212057229,9000,8700,6500,0,0,0,0,0,0,0,0,0,0,0,0,0,0,0,0,0,Automóviles y Camperos,Buses,Camiones 2 ejes Pequeños,Camiones 2 ejes Grandes,Camiones 3 y 4 ejes,Camiones 5 ejes,Camiones 6 ejes, , , , , , ,EJE GRUA,EJE REMOLQUE,EJE ADICIONAL, , , , , , , , , , 
-73.69204914,8.329119646,3890,7006,2,800,GAMARRA,INVIAS,CESAR,51,1,8200,24700,28300,0,0,https://hermes.invias.gov.co/recursos/Fichas%20Peajes/3890.pdf,Gamarra - Aguachica,9200,19500,5,INVIAS, , ,No tiene servicio,No tiene servicio,9000,8700,600,200,0,0,0,0,0,0,0,0,0,200,200,9900,12600,14300,0,0,"Automóviles, camperos, camionetas",Buses,Camiones de dos ejes pequeños,Camiones de dos ejes grandes,Camiones de tres y cuatro ejes,Camiones de cinco ejes,Camiones de seis ejes, , , , , , , , , , , , , , , , , , , 
-75.26428976,10.13613313,3917,9005,61,583,GAMBOTE,CONCESION ANI,BOLÍVAR,52,-75.26428976,8000,26400,30200,0,0,http://hermes.invias.gov.co/carreteras/images/peajes/peaje.jpg,Cruz del Viso - Cartagena,8900,19800,2,Ruta Caribe,Ambos sentidos de circulación,Km 61+400 Ruta 9005 Troncal de Occidente,3212057230,3212057227,8700,8400,6000,0,0,0,0,0,0,0,0,0,0,0,0,0,0,0,0,0,Automóviles y Camperos,Camiones y Buses 2 ejes Pequeños,Camiones y Buses 2 ejes Grandes,3 y 4 Ejes,5 Ejes, , , , , , , , ,Eje grúa,Eje remolque,Eje adicional, , , , , , , , , , 
-75.05003291,4.300428797,3814,4404,9,551,GUALANDAY,CONCESION ANI,TOLIMA,54,-75.05002755,10200,38500,42400,0,0,http://hermes.invias.gov.co/carreteras/images/peajes/peaje.jpg,Ibague (Puente Blanco) - Cruce Ruta 45 (Espinal),12000,28600,2,Concesionaria San Rafael S.A.,Aplica en ambos sentidos de circulación,Km. 9+0600 de la ruta 4004 que corresponde a la vía Ibagué (Puente Blanco  El Espinal (cruce ruta 45))  Espinal,3138863287,3212087489,9900,9300,6600,5900,0,0,0,0,0,0,0,0,0,5700,0,0,0,0,0,0,Categoría I Automóviles y Camperos,Categoría II Camiones y Buses 2 ejes pequeños,Categoría III Camiones y Buses 2 ejes grandes,Categoría IV 3 y 4 ejes,Categoría V 5 Ejes, , , , , , , , ,Categoría Eje Grúa,Categoría Eje Remolque,Categoría Eje Adicional, , , ,Categoría Especial IE, , , , , , 
-75.51567505,6.327897805,3858,6004,6,950,GUARNE,CONCESION ANI,ANTIOQUIA,55,-75.51551355,12000,20900,41600,59300,59300,http://hermes.invias.gov.co/carreteras/images/peajes/peaje.jpg,Medellín - Santuario,20900,16700,2,Concesión Devimed,Oriente,Km 7 Autopista Medellín - Bogotá,018000518427  - 408-08-42 - 3860085,3206588921 - 3128199563,0,0,0,8800,0,0,0,0,0,0,0,0,0,9000,0,0,0,0,0,0,Automóviles y camperos y camionetas,Buses,Camiones pequeños de 2 ejes,Camiones grandes de 2 ejes,Camiones de 3 y 4 ejes,Camiones de 5 ejes,Camiones de 6 ejes, , , , , , , , , , , , ,Categoría Especial, , , , , , 
-74.78904893,4.528736858,6404,4508,3,0,GUATAQUI,CONSECION ANI,Cundinamarca,0,0,9700,25700,36400,59000,67400, ,Tramo que cubre la via Guataquí - Cambao - Honda,14000,19200,2,Concesión Alto Magdalena,Aplica en ambos sentidos,Km 3 Ruta 45,3219738507,3219738507,0,0,0,0,0,0,0,0,0,0,0,0,0,,0,0,0,0,0,0,Automóviles -Camperos - Camionetas,Buses - Busetas - Microbuses,Camiones pequeños 2 Ejes,Camiones Grandes de 2 ejes,Camiones de 3 y 4 Ejes,Camiones de 5 Ejes,Camiones 6 Ejes o Más,,,,,,,,,,,,,,,,,,,
-74.4831854,4.883413076,3962, ,0,0,GUAYABAL,DEPARTAMENTO,CUNDINAMARCA,56,-74.4831854,12400,19600,35300,45700,55000,http://hermes.invias.gov.co/carreteras/images/peajes/peaje.jpg,Guayabal de Síquima - Cambao,16800,14100,3,CONCESIÓN PANAMERICANA,Norte - occidente // occidente - norte,Peaje Rio Bogotá – Facatativa – Villeta – Viani – Cambao Km 63 Jurisdicción del Municipio de Guayabal,3184666166,3138879089,0,0,0,7900,0,0,0,0,0,0,0,0,0,0,11900,9700,13300,24500,32100,0,Categoría I Automóviles y Camperos,Categoría II Camiones y Buses 2 ejes pequeños,Categoría III Camiones y Buses 2 ejes grandes,Categoría IV 3 y 4 ejes,Categoría V 5 Ejes,Categoría VI 6 Ejes,Categoría VII, , , , , , , , , , , , ,Categoría IE,Categoría IIE,Categoría IIIE,Categoría IVE,Categoría VE,Categoría VIE, 
-74.82034451,5.201507469,3940,5007,35,75,HONDA,CONCESION ANI,TOLIMA,57,-74.82034451,10700,12400,26500,36200,39200,http://hermes.invias.gov.co/carreteras/images/peajes/honda.jpg,Fresno - Honda,11400,11900,2,Concesionaria Alternativas Viales SAS.,Norte – Sur  / Sur - Norte,Km 35 + 100 Vía Mariquita – Honda,3506666383 - 3506666384 - 3506666385,350 666-6375 - 350666-6386,0,0,0,5200,0,0,0,0,0,0,0,0,0,5400,0,0,0,0,0,0,Automóviles y camperos,Buses y Busetas / Camiones pequeños hasta 4.5 toneladas,Camiones y buses 2 ejes grandes,Camiones de 3 y 4 ejes,Camiones de 5 ejes, , , , , , , , , , , , , , , , , , , , , 
-73.70640011,3.633042757,3970,6509,6,919,IRACA,CONCESION ANI,META,58,-73.70640011,9700,23300,34600,46000,50000,http://hermes.invias.gov.co/carreteras/images/peajes/peaje.jpg,Ye de Granada - Paso por el Puente sobre el Río Ocoa,19400,13300,2,Concesión Autopistas de los Llanos,Sur,Vía Villavicencio – Granada Km 7+200,(8) 6700868 - #765 018000918624,(578) 668 49 90-91,0,0,0,0,0,0,0,0,0,0,0,0,0,0,0,0,0,0,0,0,"Automóviles, Camperos y Camionetas",Camiones y Buses con eje trasero doble llanta,Camiones de 3 y 4 ejes,Camiones de 5 ejes,Tracto Camiones,6 Ejes, , , , , , , , , , , , , , , , , , , , 
-74.42616787,4.901355703,3898, ,0,0,JALISCO,DEPARTAMENTO,CUNDINAMARCA,59,-74.42616787,12400,19600,35300,45700,55000,http://hermes.invias.gov.co/carreteras/images/peajes/peaje.jpg,Sasaima - Albán,16800,14100,3,CONCESIÓN PANAMERICANA,Occidente - Oriente // Oriente - Occidente,Peaje Río Bogotá – Facatativá – Villeta – Vianí – Cambao Km 89+400 Jurisdicción del Municipio de Albán,3102576509  // 31*288,3102576509,0,0,0,7900,0,0,0,0,0,0,0,0,0,0,0,0,0,0,0,0,Categoría I Automóviles y Camperos,Categoría II Camiones y Buses 2 ejes pequeños,Categoría III Camiones y Buses 2 ejes grandes,Categoría IV 3 y 4 ejes,Categoría V 5 Ejes,Categoría VI6 Ejes,Categoría VII, , , , , , , , , , , , ,Categoría IE, , , , , , 
-74.89825119,10.93438228,10006,25AT04,24200,0,JUAN MINA,ANI,ATLÁNTICO,0,0,13000,24800,77600,103500,114800, ,Vía Juan Mina - Las Hermanas,19500,14100,2,Concesión Costera Barranquilla - Cartagena,Norte - Sur. Sur - Norte,Vía La Cordialidad - Galapa,18000977330,311 4803629,,,,,,,,,,,,,,,,,,,,,Autos,Buses,Camiones 2 ejes Pequeños,Camiones 2 ejes Grandes,Camiones 3 y 4 ejes,Camiones 5 ejes,Camiones 6 ejes,,,,,,,,,,,,,,,,,,,
-75.30171963,8.031280606,3945,2513,11,831,LA APARTADA,CONCESION ANI,CORDOBA,60,-75.30171963,13100,19300,34900,55600,64100,http://hermes.invias.gov.co/carreteras/images/peajes/la_apartada.jpg,Caucasia - Planeta Rica,19300,19300,2,Concesión Ruta al Mar,Sur – Norte,Vía Caucasia – Planeta Rica  Km 12,3102467118,3216177100,0,0,0,0,0,0,0,0,0,0,0,0,0,0,0,0,0,0,0,0,"Automóviles, Camperos y Camionetas",Buses,Camiones pequeños de 2 ejes,Camiones grandes de 2 ejes,Camiones de 3 y 4 ejes,Camiones de 5 ejes,Camiones de 6 ejes, , , , , , , , , , , , , , , , , , , 
-73.94553287,4.809532136,3850,5009,0,0,LA CABAÑA,CONCESION ANI,CUNDINAMARCA,61,-73.94553287,9600,34300,46900,47300,0,http://hermes.invias.gov.co/carreteras/images/peajes/la_cabana.jpg,Bogotá (Los Patios) - Guasca,15100,23400,2,PERIMETRAL ORIENTAL DE BOGOTÁ S.A.S,Norte – Sur,La Calera – Briceño Km 21+800,3112178121,"3102399451, 3162340275, #762 y 018000181762",8700,8400,6400,0,0,0,0,0,0,0,0,6700,0,0,10300,0,0,0,0,0,Categoría I Automóviles y Camperos,Categoría II Camiones y Buses  2 ejes pequeños,Categoría III Camiones y Buses 2 ejes grandes,Categoría IV 3 y 4 ejes,Categoría V 5 Ejes,Categoría VI 6 Ejes, , , , , , , ,Categoría Eje Grúa,Categoría Eje Adicional Remolque,Categoría Eje Adicional, ,Categoría Eje Cañero, , ,Categoría IIE, , , , , 
-75.43594955,9.430745196,3819,25SC01,15,402,LA ESPERANZA,CONCESION ANI,SUCRE,62,-75.43594955,8200,24300,27400,0,0,http://hermes.invias.gov.co/carreteras/images/peajes/la_esperanza.jpg,Sincelejo - Toluviejo,8900,19200,2,Concesión Autopistas de la Sabana Córdoba - Sucre,Aplica en ambos sentidos,Km 15+200 Vía Sincelejo – Toluviejo,3124964386,3184095455 – 3182406622,8700,8400,6400,0,0,0,0,0,0,0,0,0,2000,2100,0,0,0,0,0,0,Automóviles y Camperos,Camiones y Buses 2 ejes Pequeños,Camiones y Buses 2 ejes Grandes,Camiones y Buses 2 ejes Grandes,Camiones y Buses 2 ejes Grandes, , , , , , , , ,Eje grúa,Eje remolque,Eje adicional, , ,Categoría Especial, , , , , , , 
-75.50528033,5.12551851,3900, ,0,0,LA ESTRELLA,DEPARTAMENTO,CALDAS,5.12551851,-75.50528033,6100,22500,25300,0,0,http://hermes.invias.gov.co/carreteras/images/peajes/peaje.jpg,Manizales - Neira,7100,0,3, , , , , ,0,0,0,0,0,0,0,0,0,0,0,0,0,0,0,0,0,0,0,0, , , , , , , , , , , , , , , , , , , , , , , , , , 
-73.5465192,7.397175967,3800,6602,37,300,LA GOMEZ,INVIAS,SANTANDER,63,1,10900,38800,45600,0,0,https://hermes.invias.gov.co/recursos/Fichas%20Peajes/3800.pdf,Cruce Ruta 45 (La Fortuna) - Lebrija,13800,32400,5,INVIAS,Sur – Norte,Vía La Lizama – San Alberto Km 37 + 300,No tiene servicio,No tiene servicio,10200,10000,7300,0,0,0,0,0,0,0,0,0,0,0,0,0,0,0,0,0,Automóviles y Camperos.,Camiones y Buses 2 ejes Pequeños.,3 ejes.,4 ejes.,5 ejes., , , , , , , , ,Eje Grúa.,Eje Remolque.,Eje adicional., , , , , , , , , , 
-75.49062114,10.34234351,3905, ,0,0,LA HEROICA,DISTRITO,BOLÍVAR,10.34242003,-75.49062651,2900,10700,16400,0,0,http://hermes.invias.gov.co/carreteras/images/peajes/peaje.jpg,Variante Mamonal - Gambote,4600,8200,4,CONVIAL,Ambos sentidos de circulación,Variante Mamonal - Gambote,(57) (5)6609002 - 6607822 - 6609125,(57) (5)6609002 - 6607822 - 6609125,0,0,0,0,0,0,0,0,0,0,0,0,0,0,0,0,0,0,0,0,Categoría I Livianos y Automóviles,Categoría II Buses y Busetas,Categoría III Camiones de 2 Ejes,Categoría IV Camiones de,Categoría V Camiones de más de 5 Ejes, , , , , , , , , , , , , , , , , , , , , 
-73.46398294,4.056859962,3922,4007,17,585,LA LIBERTAD,CONCESION ANI,META,64,-73.46328557,12700,30500,45400,59800,68500,http://hermes.invias.gov.co/carreteras/images/peajes/peaje.jpg,Villavicencio - Paso por el Puente sobre el Río La Balsa -Puerto Lopez,25300,18300,2,Concesión Autopistas de los Llanos,Oriente,Vía Villavicencio – Puerto López Km 18+900,(8) 6700868 – 3115615494,3223472204 - #765,0,0,0,0,0,0,0,0,0,0,0,0,6100,6300,0,0,0,0,0,0,Automóviles y Camperos,Camiones y Buses 2 ejes pequeños,Camiones y Buses 2 ejes grandes,3 y 4 Ejes,5 Ejes,6 Ejes,CAT VII, , , , , , , , , , , ,CAT Especial, , , , , , , 
-73.63939838,9.638016517,3801,4516,40,1927,LA LOMA,CONCESION ANI,CESAR,65,-73.63939838,8100,25100,28500,0,0,http://hermes.invias.gov.co/carreteras/images/peajes/peaje.jpg,San Roque - Bosconia,9000,19500,2,Concesión Yuma,Sur – Norte,Km 42 Vía San Roque - Bosconia,3158210547,018000945566 Opción 1,9000,8700,6500,0,0,0,0,0,0,0,0,0,0,0,0,9900,12700,14400,0,0,Automoviles y camperos,Camiones y buses 2 ejes pequeños,Camiones y buses 2 ejes grandes,3 y 4 Ejes,5 Ejes, , , , , , , , ,Eje grúa,Eje adicional Remolque,Eje adicional, , , , , , , , , , 
-72.20613827,5.524910589,3984,6513,34,900,LA NEVERA,INVIAS,CASANARE,145,0,7500,21800,24500,0,0, ,Paz de Ariporo - Yopal,8100,17200,5,INVÍAS,Bidireccional,Paz de Ariporo - Yopal Km. 34+900,No tiene,No cuenta con servicio,0,0,0,1100,0,0,0,0,0,0,0,0,0,0,1800,0,0,0,0,0,Automóviles y Camperos,Camiones y Buses 2 ejes pequeños,Camiones y Buses 2 ejes grandes,3 y 4 ejes,Categoría V 5 Ejes, , , , , , , , , , , , , , ,Categoría Especial IE,Categoría Especial IIE, , , , , 
-72.48416464,7.867456472,3969,7010,1,792,LA PARADA,CONCESION ANI,N. DE SANTANDER,66,-72.48416464,2000,2000,2000,0,0,http://hermes.invias.gov.co/carreteras/images/peajes/peaje.jpg,Cúcuta - Puente Internacional Simón Bolívar,2000,2000,2,Concesionaria San Simón S.A,Sentido San Antonio (Venezuela) - Cúcuta,Km. 2 de la Autopista Internacional que comunica a Cúcuta con San Antonio,3104946611,320 345 2139,2000,0,2000,0,0,0,0,0,0,0,0,0,0,0,0,0,0,0,0,0, , , , , , , , , , , , , , , , , , , , , , , , , , 
-75.62728596,5.749465359,3811,25B01,2,957,LA PINTADA,CONCESION ANI,ANTIOQUIA,67,-75.62728596,8300,24400,27400,0,0,http://hermes.invias.gov.co/carreteras/images/peajes/peaje.jpg,La Pintada - Peñalisa,9000,19200,2,Concesión Pacifico Tres S.A.S.,Sur – Norte,KM 03 RUTA 25B01 Vía Pintada – Bolombolo,3173673153,3185018100  - #272 Claro Movistar y Tigo,8700,8400,6400,0,0,0,0,0,0,0,0,0,0,0,0,0,0,0,0,0,Automóviles y Camperos,Camiones y Buses 2 Ejes,3 ejes,4 ejes,5 ejes, , , , , , , , ,Eje Grúa,Eje remolque,Eje adicional, ,Eje Cañero, , , , , , , , 
-74.17147724,4.744624343,3911, ,0,0,LA TEBAIDA,DEPARTAMENTO,CUNDINAMARCA,4.74466731,-74.17163204,11200,15600,34500,42400,44800,http://hermes.invias.gov.co/carreteras/images/peajes/peaje.jpg,Funza - Cota,13500,13500,3,CONCESIÓN DEVISAB,Sur - Norte // Norte - Sur,Kilómetro 8 Vía Mosquera - Chía Jurisdicción del Municipio de Funza,*815 - 018000953550,*815 - 018000953550,0,0,0,0,0,0,0,0,0,0,0,0,0,0,0,0,0,0,0,0,Categoría I Automóviles y Camperos,Categoría II Buses y Busetas,Categoría III Camiones y Buses 2 ejes pequeños,Categoría IV Camiones y Buses 2 ejes grandes,Categoría V Camiones de 3 y 4 ejes,Categoría VI Volquetas y Camiones de 5 ejes,Categoría VII 6 ejes Volquetas y Camiones, , , , , , , , , , , , , , , , , , , 
-76.11843753,4.252468251,3988,2506,12,296,LA URIBE,DEPARTAMENTO,VALLE DEL CAUCA,4.25300154,-76.11906914,8400,34300,38000,0,0,http://hermes.invias.gov.co/carreteras/images/peajes/peaje.jpg,Andalucía - La Paila -La Victoria,10800,25300,3,PISA Proyectos de Infraestructura S.A.,Norte – Sur  / Sur - Norte,Vía Andalucía – Cerritos Km 12+300,3155602442,2238660 - 3155602442,0,0,0,0,0,0,0,0,0,0,0,0,0,0,0,0,0,0,0,0,Categoría I Automóviles y Camperos,Categoría II Camiones y Buses 2 ejes pequeños,Categoría III Camiones y Buses 2 ejes grandes,Categoría IV 3 y 4 ejes,Categoría V 5 Ejes,Categoría VI 6 Ejes,Categoría VII, , , , , , , , , , , , , , , , , , , 
-75.31995382,9.318846937,3867,2515,5,858,LAS FLORES,CONCESION ANI,SUCRE,48,-75.31995382,4500,23600,27100,0,0,http://hermes.invias.gov.co/carreteras/images/peajes/peaje.jpg,Sincelejo - Puerta de Hierro,12000,18600,2,Concesión Autopistas de la Sabana Córdoba - Sucre,Nor Oriente,Vía Sincelejo – Carmen de Bolivar Km 05+600,3124964386,3184095455 – 3182406622,0,0,0,4700,0,0,0,0,0,0,0,0,2900,3000,4800,6300,0,0,0,0,Automóviles y Camperos,Camiones y Buses 2 ejes Pequeños,Camiones y Buses 2 ejes Grandes,Camiones y Buses 2 ejes Grandes,Camiones y Buses 2 ejes Grandes, , , , , , , , , , , , , ,ESPECIAL,ESPECIAL IE,ESPECIAL IIE, , , , , 
-75.53125739,6.150673018,3932,5601,0,0,LAS PALMAS,CONCESION ANI,ANTIOQUIA,68,-75.53125739,8700,10500,23300,31400,35100,http://hermes.invias.gov.co/carreteras/images/peajes/peaje.jpg,Glorieta Las Palmas - La Unión,10500,10500,2,Concesión Túnel Aburrá - Oriente S.A.,Oriente – Occidente,Km. 5 RUTA 5601 Vía Medellín -  La Ceja,(4) 4446178 - 2228085 - 4602225,(4) 4446178 - 2228085 - 4602225,0,0,0,6400,0,0,0,0,0,0,0,0,0,6500,200,0,0,0,0,0,Automóviles y Camperos,Buses,Camiones pequeños de 2 ejes,Camiones grandes de 2 ejes,Camiones de 3 y 4 ejes,Categoría VI,Categoría VII, , , , , , , , , , , , ,Categoría Especial I,Categoría Especial II, , , , , 
-74.72971898,10.97871917,3843,9007,5,569,LAUREANO GOMEZ,DEPARTAMENTO,MAGDALENA,100,-74.72971898,10100,37200,42100,0,0,http://hermes.invias.gov.co/carreteras/images/peajes/peaje.jpg,Barranquilla - Santa Marta,1200,28100,3,Concesión (Barranquilla -Ciénaga),Norte – Sur,KM 3+300 Vía Barranquilla – Santa Marta,3106328761,3106303030 - 3106328761,15900,0,0,0,0,0,0,0,0,0,0,0,0,0,0,0,0,0,0,0,Automóviles y Camperos,Buses y Busetas 2 ejes dobles,Camiones de 3.5 Ton.,Camiones de 5 Ton.,3 Ejes, , , , , , , , , , ,Eje Adicional, , , , , , , , , , 
-73.1886116,7.103127117,7205,6602,64,362,LEBRIJA,EDISAN,SANTANDER,69,-73.19,7200,26000,29800,0,0, ,Lebrija - Palenque,8200,19600,3,DEPARTAMENTO,Sur - Norte,Vía Fortuna - Bucaramanga Km 65+500 Jurisdicción del municipuio de Lebrija,3188884392,No cuenta con servcicio,,,,,,,,,,,,,,,,,,,,,Automóviles y camperos,Camiones y Buses 2 ejes pequeños,Camiones y Buses 2 ejes Grandes,3 y 4 ejes,5 ejes,,,,,,,,,,,,,,,,,,,,,
-76.6655706,3.762970321,3980,4001,63,228,LOBOGUERRERO,INVIAS,VALLE DEL CAUCA,70,1,8300,29300,33300,0,0,http://hermes.invias.gov.co/carreteras/images/peajes/peaje.jpg,Cruce Ruta 40 (Loboguerrero) - Buga,9300,22300,5,CONSORCIO NQS,Norte – Sur  / Sur - Norte,VÍA BUENAVENTURA - BUGA KM 63+700 Tramo que cubre: Desde el PR 63+310 en Loboguerrero y finaliza en el PR 118+418 en Buga,3228171095,3228171095,10600,21600,6500,0,0,0,0,0,0,0,0,6600,0,600,600,0,0,0,0,0,Automóviles y Camperos,Camiones y Buses 2 ejes pequeños,Camiones y Buses 2 ejes grandes,3 y 4 ejes,5 Ejes, , , , , , , , ,Eje Grúa,Eje Adicional Remolque,Eje Adicional, ,Eje Cañero, , , , , , , , 
-72.57131701,7.72138208,3930,5505,118,1646,LOS ACACIOS,CONCESION ANI,N. DE SANTANDER,71,-72.57131701,6100,25100,28500,0,0,http://hermes.invias.gov.co/carreteras/images/peajes/peaje.jpg,Pamplona - Cúcuta,8700,19500,2,CONCESIÓN UNIÓN  VIAL RÍO PAMPLONITA,Aplica en ambos sentidos,Km 119+900,(7) 5767878,3203452139,8800,8500,6300,0,0,0,0,0,0,0,0,0,0,0,0,0,0,0,0,0,Automoviles y Camperos,Camiones y buses 2 ejes pequeños,Camiones y buses 2 ejes grandes,3 y 4 ejes,5 Ejes, , , , , , , , ,Eje adicional Grúa,Eje adicional remolque,Eje adicional, , , , , , , , , , 
-75.30193609,2.785583797,3857,4505,98,628,LOS CAUCHOS,CONCESION ANI,HUILA,72,-75.30193609,8300,24400,27400,0,0,http://hermes.invias.gov.co/carreteras/images/peajes/los_cauchos.jpg,Garzón - Neiva,9000,19200,2,Concesión Aliadas para El Progreso,Aplica en ambos sentidos de circulación,Vía Garzon – Neiva Km 98+499 Jurisdicción Municipio de Rivera,320 995 5541,311 260 50 25  - #296,8700,8400,6400,5100,0,0,0,0,0,0,0,6700,0,5300,2200,0,0,0,0,0,Categoría I Automóviles y Camperos,Categoría II Camiones y Buses 2 ejes pequeños,Camiones y Buses 2 ejes grandes,3 y 4 ejes,5 Ejes, , , , , , , , ,Eje Grúa,Eje Remolque,Eje Adicional, , , ,Categoría IE, , , , , , 
-75.99889801,8.819768367,3830,7401,46,1001,LOS CEDROS,CONCESION ANI,CORDOBA,73,-75.99889801,13100,34900,55600,64100,0,http://hermes.invias.gov.co/carreteras/images/peajes/peaje.jpg,Puerto Rey - Monteria,19300,19300,2,Concesión Ruta al Mar,Aplica en ambos sentido de circulación,Via Puerto Rey – Montería Km 47 Recorrido  67 KMS,3116346193 - 3116346192,094 - 7911207,0,0,0,0,0,0,0,0,0,0,0,0,0,11300,15800,0,0,0,0,0,Automóviles y Camperos,Camiones y Buses 2 ejes Pequeños,Camiones y Buses 2 ejes Grandes,3 y 4 Ejes,5 Ejes,6 Ejes,, , , , , , ,Eje grúa,Eje remolque,Eje remolque, , , , , , , , , , 
-72.99948187,6.825634367,3817,45A07,53,730,LOS CUROS,INVIAS,SANTANDER,74,1,8500,29600,34600,0,0,https://hermes.invias.gov.co/recursos/Fichas%20Peajes/3817.pdf,San Gil - Bucaramanga,9200,23800,5, Invias,Aplica en ambos sentidos,Vía San Gil - Bucaramanga Km 53+730 Jurisdicción Municipio de Piedecuesta,sin numero,sin numero,10200,10000,7000,0,0,0,0,0,0,0,0,0,0,0,0,0,0,0,0,0,Automóviles y Camperos.,Camiones y Buses 2 ejes Pequeños.,Camiones y Buses 2 ejes Grandes.,3 y 4 ejes.,5 ejes., , , , , , , , ,Eje Grúa.,Eje Remolque.,Eje adicional., , , , , , , , , , 
-75.82684634,8.842209915,3968,2103,1,473,LOS GARZONES 1,CONCESION ANI,CORDOBA,53,-75.82446454,4500,23600,27100,0,0,http://hermes.invias.gov.co/carreteras/images/peajes/peaje.jpg,Montería - Cereté,12000,18600,2,Concesión Autopistas de la Sabana Córdoba - Sucre,GARZONES 1 SUR – NORTE,Vía Monteria - Lorica Km. 1 más 320 metros,3124964386,3184095455 – 3182406622,0,0,0,4700,0,0,0,0,0,0,0,0,2900,3000,4800,6300,0,0,0,0,Automóviles y Campero,Camiones y Buses 2 ejes Pequeños,Camiones y Buses 2 ejes Grandes,Camiones y Buses 2 ejes Grandes,Camiones y Buses 2 ejes Grandes, , , , , , , , , , , , , ,Categoría especial E,Categoría especial IE,Categoría especial IIE, , , , , 
-75.836761,8.827783,3999,2103,1,0,LOS GARZONES 2,CONCESION ANI,CORDOBA,0,0,4500,23600,27100,0,0, ,Montería - Cereté,12000,18600,2,Concesión Autopistas de la Sabana Córdoba - Sucre,GARZONES 2  NORTE - SUR.,Vía Monteria - Lorica Km. 1 más 320 metros,3124964386,3184095455 – 3182406622,0,0,0,0,0,0,0,0,0,0,0,0,0,3000,4800,6300,0,0,0,0,Automóviles y Campero,Camiones y Buses 2 ejes Pequeños,Camiones y Buses 2 ejes Grandes,Camiones y Buses 2 ejes Grandes,Camiones y Buses 2 ejes Grandes, , , , , , , , , , , , , ,Categoría especial E,Categoría especial IE,Categoría especial IIE, , , , , 
-75.4681404,6.830502481,3848,2511,3,500,LOS LLANOS,INVIAS,ANTIOQUIA,75,1,8800,25700,29000,0,0,https://hermes.invias.gov.co/recursos/Fichas%20Peajes/3848.pdf,Los Llanos - Tarazá,9700,20200,5,INVIAS,Norte - Sur,"KM 03+450 RUTA 2511, vía Medellin - La Costa",3102462831,3208360300 - 3212059197,9000,8700,6600,4500,0,0,0,0,0,0,0,0,0,4200,4800,0,0,0,0,0,"Automóviles, Camperos y Camionetas",Buses,Camiones de dos ejes pequeños,Camiones de dos ejes grandes,Camiones de tres y cuatro ejes,Camiones de cinco ejes,Camiones de seis ejes, , , , , , , , , , , , , , , , , , , 
-75.53009875,8.301572194,3976,2513,52,138,LOS MANGUITOS,CONCESION ANI,CORDOBA,8.30118958,-75.52981216,13100,19300,34900,55600,64100,http://hermes.invias.gov.co/carreteras/images/peajes/peaje.jpg,Caucasia - Planeta Rica,19300,19300,2,Concesión Ruta al Mar,Aplica en ambos sentido,Vía Caucasia – Planeta Rica (Municipio de Plaza Bonita) Cubre Tramo Buenavista – Planeta Rica,sin numero,3216177100,0,0,0,6600,0,0,0,0,0,0,0,0,0,6400,0,0,0,0,0,0,"Automóviles, Camperos y Camionetas",Buses,Camiones pequeños de 2 ejes,Camiones grandes de 2 ejes,Camiones de 3 y 4 ejes,Camiones de 5 ejes,Camiones de 6 ejes, , , , , , , , , , , , ,Categoría especial IE, , , , , , 
-74.01057918,4.663724514,3851,5009,21,639,LOS PATIOS,CONCESION ANI,CUNDINAMARCA,90,-74.01057918,9600,34300,46900,47300,0,http://hermes.invias.gov.co/carreteras/images/peajes/patios.jpg,Bogotá (Los Patios) - Guasca,15100,23400,2,INVIAS – VIPSA,Sur – Norte,La Calera – Briceño Km 0+050,3118179035,"3102399451, 3162340275, #762 y 018000181762",8700,8400,6400,4900,0,0,0,0,0,5400,0,6700,0,5100,10300,0,0,0,0,0,Categoría I Automóviles y Camperos,Categoría II Camiones y Buses 2 ejes pequeños,Categoría III Camiones y Buses 21 ejes grandes,Categoría IV 3 y 4 ejes,Categoría V 5 Ejes,Categoría VI 6 Ejes, , , , , , , ,Categoría Eje Grúa,Categoría Eje Adicional Remolque,Categoría Eje Adicional, ,Categoría Eje Cañero, ,Categoría IE,Categoría IIE, , , , , 
-73.03420732,6.917377914,3895, ,0,0,LOS SANTOS,DEPARTAMENTO,SANTANDER,6.91715957,-73.03435216,0,0,0,0,0,http://hermes.invias.gov.co/carreteras/images/peajes/peaje.jpg,Piedecuesta - Los Santos,0,0,3,Concesión CONSTRUVICOL S.A,En ambos sentidos, ,037 656 8002 - 316 6058384,037  646 9396 - 320 8003657,0,0,0,0,0,0,0,0,0,0,0,0,0,0,0,0,0,0,0,0, , , , , , , , , , , , , , , , , , , , , , , , , , 
-73.553428,5.077262984,3810,5607,27,250,MACHETA,CONCESION ANI,CUNDINAMARCA,76,-73.53570252,8500,12350,13850,0,0,http://hermes.invias.gov.co/carreteras/images/peajes/peaje.jpg,Brisas - Guateque,4500,9650,2,CONCESIÓN DEL SISGA S.A.S.,Ambos sentidos de circulación,Vía Sisga – Guateque Km 27,320 928 4913 - 321 964 0314,320 928 4913 - 321 964 0314,8700,8400,6400,3800,0,0,0,0,0,0,0,0,0,3900,4200,0,0,0,0,0,"Categoría I Automóviles, Camperos y Camionetas y microbuses con ejes de llanta sencilla","Categoría II Buses, Busetas microbuses con eje trasero de doble llanta",Categoría III Vehículos de pasajeros y de carga de tres y cuatro ejes,Categoría IV Vehículos de carga de cinco (5) ejes,Categoría V Vehículos de carga de seis (6) ejes, , , , , , , , ,Categoría Eje Grúa,Categoría Eje Remolque,Categoría Eje Adicional, , , ,Categoría Especial IE,Categoría Especial IIE, , , , , 
-75.45055922,10.57453506,3904,90A01,15,949,MARAHUACO,CONCESION ANI,BOLÍVAR,77,-75.45040902,15000,28600,89700,119600,132900,http://hermes.invias.gov.co/carreteras/images/peajes/peaje.jpg,Cartagena - Lomita Arena,22600,16400,2,Concesión Costera - Barranquilla - Cartagena,Ambos sentidos de circulación,Km 16 Vía Cartagena  - Barranquilla,3124572713 - 3157210245 Ó # 212 Movistar / 3106303666 Ó # 211 Claro / 3004510014 Ó # 211 Tigo,018000977330 - 3114803629,0,0,0,0,0,0,0,0,0,0,0,0,0,7100,8500,7500,8700,0,0,0,Automóviles y Camperos,Buses de Transporte Público,Camiones  2 ejes Pequeños,Camiones  2 ejes Grandes,Camiones 3 y 4 Ejes,5 Ejes,6 Ejes, , , , , , , , , , , , , , , , , , , 
-75.81987948,9.091425667,3938,2103,32,632,MATA DE CAÑA,CONCESION ANI,CORDOBA,78,-75.81987948,12800,18900,20200,29400,29500,http://hermes.invias.gov.co/carreteras/images/peajes/mata_de_cana.jpg,Cereté - Lorica,18900,18900,2,Concesión Ruta al Mar,Sur – Norte,Vía Monteria - Lorica Km 32+700 Metros,3102468199 - 3145007265,3216177100,0,0,0,0,0,0,0,0,0,0,0,0,0,0,0,0,0,0,0,0,"Automóviles, Camperos y Camionetas",Buses,Camiones pequeños de 2 ejes,Camiones grandes de 2 ejes,Camiones de 3 y 4 ejes,Camiones de 5 ejes,Camiones de 6 ejes, , , , , , , , , , , , , ,Categoría especial IIE, , , , , 
-76.4113863,3.759985933,5606,2301,51,848,MEDIACANOA,INVIAS,VALLE DEL CAUCA,79,1,8900,37700,43400,0,0,https://hermes.invias.gov.co/recursos/Fichas%20Peajes/5606.pdf,Yumbo - Mediacanoa,10700,28900,5,INVIAS,Sur - Norte // Norte - Sur,Vía Cali – Mediacanoa Km 36+600,No cuenta con número,No cuenta con servicio,10700,21200,6600,4100,,,,,,,,6600,,,4900,,,,,,Automóviles y Camperos,Camiones y Buses 2 ejes pequeños,Camiones y Buses 2 ejes grandes,3 y 4 ejes,5 Ejes,,,,,,,,,Eje Grúa,Eje Adicional Remolque,Eje Adicional,,Eje Cañero,,CAT IE,CAT IIE,,,,,
-74.29408445,4.638348462,3887, ,0,0,MONDOÑEDO,DEPARTAMENTO,CUNDINAMARCA,4.63834846,-74.29408445,11200,15600,44800,61600,70300,http://hermes.invias.gov.co/carreteras/images/peajes/peaje.jpg,La Mesa - Mosquera,13500,13500,3,CONCESIÓN DEVISAB,Norte - Sur // Sur Norte,Vía Chía – La Mesa – Girardot Km 105 Jurisdicción del Municipio de Bojacá,#815  Tigo - 018000953550,#815  Tigo - 018000953550,0,0,0,0,0,0,0,0,0,0,0,0,0,0,0,0,0,0,0,0,Categoría I Automóviles y Camperos,Categoría II Buses y Busetas,Categoría III Camiones y Buses 2 ejes pequeños,Categoría IV Camiones y Buses 2 ejes grandes,Categoría V 3 y 4 ejes Volquetas y Camiones,Categoría VI 5 ejes Volquetas y Camiones,Categoría VII 6 ejes Volquetas y Camiones, , , , , , , , , , , , , , , , , , , 
-73.56001492,8.09234873,3995,4514,39,653,MORRISON,INVIAS,OCAÑA,80,1,9800,28400,32400,0,0,https://hermes.invias.gov.co/recursos/Fichas%20Peajes/3995.pdf,San Alberto - La Mata,10700,22200,5,Concesión ruta el sol,Norte – Sur – Norte,Km 28+500 Vía San Alberto – Aguaclara,3165280395,No cuenta con servicio,10200,10000,7300,0,0,0,0,0,0,0,0,0,0,0,0,0,0,0,0,0,Automóviles y camperos,Camiones y buses de 2 ejes,3 Ejes,4 Ejes,5 Ejes, , , , , , , , ,Eje grúa,Eje Remolque,Eje adicional, , , , , , , , , , 
-75.30722632,2.97779795,3854,4506,3,728,NEIVA,CONCESION ANI,HUILA,82,-75.30722632,11700,19900,33300,42700,48600,http://hermes.invias.gov.co/carreteras/images/peajes/peaje.jpg,Neiva - Natagaima,13900,15600,2,Concesión Autovía Neiva – Girardot,Aplica en ambos sentidos de circulación,Vía Neiva – Castilla Km 3+700 Jurisdicción Municipio de Neiva,3103424699 3153340727 – 3174340907,667 10 30,0,0,0,4900,0,0,0,0,0,0,0,0,0,5200,0,0,0,0,0,0,Automóviles y Camperos,Camiones y Buses 2 ejes pequeños,Camiones y Buses 2 ejes grandes,3 y 4 ejes,5 Ejes,6 Ejes,CAT VII, , , , , , , , , , , , ,Categoría IE, , , , , , 
-74.10928246,11.25312936,3863,9008,6,759,NENGUANJE,CONCESION ANI,MAGDALENA,81,-74.10928246,9600,18900,27700,44700,56400,http://hermes.invias.gov.co/carreteras/images/peajes/peaje.jpg,Santa Marta - Río Palomino,14800,11900,2,Concesión Santa Marta - Paraguachón S.A.,Aplica en ambos sentidos,Ubicación: 6+500 Tramo que cubre: Puente Nenguange – Palomino,3138891473 - 3138891473 - (5) 7288542/43,(5) 728 85 43,0,0,0,4800,0,0,0,0,0,0,0,0,0,5000,7500,0,0,0,0,0,Automóviles y Camperos,Buses y Busetas 2 ejes,Camiones 350 2 ejes Dobles,Camiones 600 2 ejes Dobles,3 a 4 Ejes,5 Ejes,6 a mas ejes, , , , , , , , , , , , ,CAT ESPECIAL IE,CAT ESPECIAL IIE, , , , ,
-75.52659551,6.34510075,3965,2510,0,0,NIQUIA,DEPARTAMENTO,ANTIOQUIA,6.34493547,-75.52716682,2500,3400,3400,3400,3400,http://hermes.invias.gov.co/carreteras/images/peajes/peaje.jpg,Medellìn - Hoyo Rico,2500,3200,3,Concesión Hatovial S.A.S,Norte,Km 15+000 Autopista norte,4678141 - 3108992853 - 3108992853 - 2544670 - 01-8000-522-44-77,(054) 312 11 99-325 06 60,0,0,0,0,0,0,0,0,0,0,0,0,0,0,0,0,0,0,0,0, , , , , , , , , , , , , , , , , , , , , , , , , , 
-73.775205,4.026246301,3853,6509,54,629,OCOA,CONCESION ANI,META,83,-73.775205,9700,23300,34600,46000,50000,http://hermes.invias.gov.co/carreteras/images/peajes/peaje.jpg,Ye de Granada - Paso por el Puente sobre el Río Ocoa,19400,13300,2,Concesión Autopistas de Los Llanos,Sur,Vía Villavicencio – Granada Km 54+450,(8) 6700868 – 3138860370 - 018000918624 - #76,(578) 668 49 90-91,0,0,0,0,0,0,0,0,0,0,0,0,3500,3600,0,0,0,0,0,0,"Automóviles, Camperos y Camionetas",Camiones y Buses con eje trasero doble llanta,Camiones de 3 y 4 ejes,Camiones de 5 ejes,Tracto camiones,6 Ejes,CAT VIII, , , , , , , , , , , ,CAT Especial, , , , , , , 
-73.33328957,6.178236419,3839,45A06,62,900,OIBA,INVIAS,SANTANDER,84,1,8500,29600,34600,0,0,https://hermes.invias.gov.co/recursos/Fichas%20Peajes/3839.pdf,Puente Nacional - San Gil,9200,23800,5,Invias,NORESTE- SUROCCIDENTE,Vía Puente Nacional – San Gil Km 62+950,Sin numero,Sin numero,10200,10000,7000,800,0,0,0,0,0,0,0,0,0,800,800,0,0,0,0,0,Automóviles y Camperos.,Camiones y Buses 2 ejes Pequeños.,Camiones y Buses 2 ejes Grandes.,3 y 4 ejes.,5 ejes., , , , , , , , ,Eje Grúa.,Eje Remolque.,Eje adicional., , , ,CAT ESPECIAL IE., , , , , , 
-73.66972216,8.852803854,3802,4515,28,600,PAILITAS,INVIAS,CESAR,85,1,9800,28400,32400,0,0,https://hermes.invias.gov.co/recursos/Fichas%20Peajes/3802.pdf,La Mata - San Roque,10700,22200,5,INVÍAS,Norte – Sur – Norte,Km 28+500 Vía La Mata – San Roque,3165280395, ,10200,10000,7300,4800,0,0,0,0,0,0,0,0,0,4500,200,11200,14300,16300,0,0,Automóviles y camperos,Camiones y buses  ejes,3 Ejes,4 Ejes,5 Ejes, , , , , , , , ,Eje grúa,Eje adicional remolque,Eje adicional, , , , , , , , , , 
-75.59936864,6.33180205,3899, ,0,0,PAJARITO,DEPARTAMENTO,ANTIOQUIA,6.33172769,-75.59937089,6000,18800,21600,0,0,http://hermes.invias.gov.co/carreteras/images/peajes/peaje.jpg,Medellín - San Pedro,6800,0,3, , , , , ,0,0,0,0,0,0,0,0,0,0,0,0,0,0,0,0,0,0,0,0, , , , , , , , , , , , , , , , , , , , , , , , , , 
-75.68860656,6.326315113,3824,0,0,0,PALMITAS,CONCESION ANI,ANTIOQUIA,6.32631511,-75.68860656,16200,51900,62100,0,0,http://hermes.invias.gov.co/carreteras/images/peajes/peaje.jpg,Puente Aurrá - Medellín,18300,39900,2,DESARROLLO VIAL AL MAR SAS,Medellín - Santa Fe de Antioquia,Oriente Occidente Km 39+600 Occidente Oriente Km 44+800,3176676335   018000400016,3176676335   018000400016,6300,0,0,7900,0,0,0,0,0,0,0,0,0,8100,9200,0,0,0,0,0, , , , , , , , , , , , , , , , , , , , , , , , , , 
-75.37861015,6.477997756,3835,2510,0,0,PANDEQUESO,DEPARTAMENTO,ANTIOQUIA,86,-75.37861015,7800,23300,26400,0,8100,http://hermes.invias.gov.co/carreteras/images/peajes/peaje.jpg,Medellìn - Hoyo Rico,8600,18200,3,CONCESION  HATOVIAL S.A.,Norte - Sur,"KM 38+700 RUTA 2510, vía Medellín – La costa", 094-8664105 - 3108992850, 094-4012277 - 018000524477,0,7800,6000,3600,0,0,0,0,0,0,0,0,0,0,0,0,0,0,0,0,Automóviles y Camperos,Camiones y Buses 2 Ejes pequeños,Camiones y Buses 2 Ejes grandes,3 y 4 ejes,5 ejes, ,VII, , , , , , ,Eje grúa,Eje remolque, , , , ,Categoría especial, , , , , , 
-74.88958809,11.01269973,3855,90A01,103,788,PAPIROS,CONCESION ANI,ATLANTICO,87,-74.88958005,5900,25900,82500,110500,122700,http://hermes.invias.gov.co/carreteras/images/peajes/peaje.jpg,Cartagena - Lomita Arena,7000,14700,2,Concesión Costera - Barranquilla - Cartagena,Sentido Occidente Oriente,Vía al mar Km 101,3173317167,018000977330 - 3114803629,0,0,0,0,0,0,0,0,0,0,0,0,0,0,0,0,0,0,0,0,Autos,Buses,Camiones  2 ejes Pequeños,Camiones  2 ejes Grandes,Camiones  3 y 4 Ejes,5 Ejes,6 Ejes, , , , , , , , , , , , , , , , , , , 
-72.15667267,11.36760313,3963,9010,84,476,PARAGUACHON,CONCESION ANI,GUAJIRA,88,-72.15662439,9600,18900,27700,44700,56400,http://hermes.invias.gov.co/carreteras/images/peajes/peaje.jpg,Riohacha - Paraguachón,14800,11900,2,Concesión  Santa Marta Paraguachón S.A.,Aplica en ambos sentido de circulación,Ubicación: 84+475 Tramo que cubre:Cuatro vías - Paraguachón,3143300807 - 3143300807 - (5) 7288542 /43,(5) 728 85 43,0,0,0,4800,0,0,3000,0,0,0,0,0,2900,5000,3000,3000,3000,0,0,0,Categoría I Automóviles y Campero,Categoría II Buses y Busetas 2 ejes Pequeños,Camiones 350,Camiones 600,3 a 4 ejes,5 ejes,6 a mas ejes, , , , , , , , , , , ,Categoría E,Categoría especial IE,Categoría especial IIE,Categoría IIIE,Categoría IVE, , , 
-75.44394476,10.24342537,4000,90BLB,17,240,PASACABALLOS,CONCESION ANI,BOLIVAR,0,0,8100,24400,28300,28300,28300, ,Variante de Gambote,8800,18700,2,AUTOPISTAS DEL SOL S.A., Sur - Norte // Norte - Sur,Variante de Gambote, ,321 205 72 27,0,0,0,0,0,0,0,0,0,0,0,0,0,3100,0,7600,0,0,0,0, , , , , , , , , , , , , , , , , , , , , , , , , , 
-76.45767029,3.627598229,5205,23VL02,26,221,PASO DE LA TORRE,INVIAS,VALLE DEL CAUCA,89,1,8900,37700,43400,0,0,https://hermes.invias.gov.co/recursos/Fichas%20Peajes/5205.pdf,Paso de La Torre - Siberia (Variante Yumbo),10700,28900,5,INVIAS,Sur - Norte,Vía Vijes – Rozo Km 1+500,No cuenta con número,No cuenta con servicio,10700,21200,6600,4100,,,,,,,,6200,,,4900,,,,,,Categoría I Automóviles y Camperos,Categoría II Camiones y Buses 2 ejes pequeños,Categoría III Camiones y Buses 2 ejes grandes,Categoría IV 3 y 4 ejes,Categoría V 5 Ejes,,,,,,,,,Categoría Eje Grúa,Categoría Eje Adicional Remolque,Categoría Eje Adicional,,Categoría Eje Cañero,,Categoría IE,Categoría IIE,,,,,
-75.58739122,5.027053239,3957,29CL03-1,1,211,PAVAS (TRINIDAD I),CONCESION ANI,CALDAS,91,-75.58739122,10400,12600,30700,38400,44600,http://hermes.invias.gov.co/carreteras/images/peajes/peaje.jpg,Club Campestre - La Trinidad,12600,12600,2,CONCESIÓN AUTOPISTAS DEL CAFE,Ambos sentidos de circulación,Club Campestre – La Trinidad Km. 1 + 200,(6) 3282720,3138176567 #850,0,0,0,3200,0,0,0,0,0,0,0,0,0,0,3300,3700,3900,0,0,0,Categoría I Automóviles y Camperos,Categoría II Camiones y Buses 2 ejes pequeños,Categoría III Camiones y Buses 2 ejes grandes,Categoría IV 3 y 4 ejes,Categoría V 5 Ejes,Categoría VI 6 ejes,Categoría VII, , , , , , , , , , , , ,Categoría IE,Categoría IIE,Categoría IIIE, , , , 
-74.26847024,4.544131496,3892, ,0,0,PEAJE NUEVO SALTO DE TEQUENDAMA,DEPARTAMENTO,CUNDINAMARCA,4.5441315,-74.26847024,9800,13900,26800,41400,44900,http://hermes.invias.gov.co/carreteras/images/peajes/peaje.jpg,El Colegio - El Charquito,11800,11900,3,Concesión Troncal del Tequendama.,Aplica en ambos sentidos,Kilómetro 1.4 Vía Chusacá – El Triunfo – Viotá – El Portillo en la Vereda Charquito (Soacha),3114810850,No cuenta con servicio,0,0,0,0,0,0,0,0,0,0,0,0,0,0,0,0,0,0,0,0,Categoría I Automóviles y Camperos,Categoría  II Camiones y Buses 2 ejes pequeños,Categoría III Camiones y Buses 2 ejes grandes,Categoría  IV 3 y 4 ejes,Categoría  V 5 Ejes,Categoría  VI 6 Ejes,Categoría VII, , , , , , , , , , , , , , , , , , , 
-72.96896371,7.107993635,3967,6603,48,236,PICACHO,CONCESION ANI,SANTANDER,92,-72.96896371,8500,24800,27900,0,0,http://hermes.invias.gov.co/carreteras/images/peajes/el_picacho.jpg,Bucaramanga - Cuestaboba,9300,19500,2,Autopista Bucaramanga - Pamplona S.A.S.,"Sur - Norte , Norte - Sur",Vía Bucaramanga - Pamplona Km. 48 + 000 Tramo que cubre: Bucaramaga – Pamplona,301 568 2586,301 568 2586,8700,8400,6400,0,0,0,0,0,0,0,0,0,0,0,0,0,0,0,0,0,"Automóviles , Camperos y camionetas.","Camiones , Buses y camiones 2 ejes .",Camiones de 3 y 4 ejes.,Camiones 5 ejes.,Camiones de 3 y 4 ejes., , , , , , , , ,Eje Grúa.,Eje Remolque.,Eje adicional., , , , , , , , , , 
-73.72128811,4.200062781,3885,4006,72,40,PIPIRAL,CONCESION ANI,META,93,-73.72128811,16600,39400,43000,65800,85100,http://hermes.invias.gov.co/carreteras/images/peajes/peaje.jpg,Bogotá (El Portal) - Villavicencio,33000,22500,2,COVIANDINA S.A.S.,Occidente,Vía Villavicencio – Puente Susumuco Km 78+020,3214698772 - 3105851322,3143722765,0,0,0,3300,0,0,0,3400,3400,0,0,0,0,3400,0,0,0,0,0,0,Categoría I Automóviles y Camperos,Categoría II Camiones y Buses 2 ejes pequeños,Categoría III Camiones y Buses 2 ejes grandes,Categoría IV 3 y 4 Ejes,Categoría V 5 Ejes,Categoría VI 6 Ejes,Categoría VII, , , ,CAT IEE,CAT IEEE, , , , , , , ,CAT IE,No aplica,No aplica,No aplica,No aplica, , 
-73.49857234,8.23123833,3915,7007,14,296,PLATANAL,INVIAS,OCAÑA,94,1,8200,23800,27300,0,0,https://hermes.invias.gov.co/recursos/Fichas%20Peajes/3915.pdf,Aguaclara - Río de Oro,9200,18800,5,Concesión ruta el sol, Sur – Norte Ambos sentidos,Km 14 Vía Aguasclaras – Ocaña,Sin número,Sin servicio,9000,8700,6600,200,0,0,0,0,0,0,0,6200,0,200,200,0,12600,14300,0,0,"Automóviles, camperos y camionetas","Buses, busetas y camiones de 2 ejes",Camiones 3 y 4 ejes,5 ejes,6 Ejes, , , , , , , , ,Eje grúa,Eje adicional remolque,Eje adicional, ,Eje cañero, , , , , , , , 
-74.73146434,4.40331639,3912, ,0,0,PUBENZA,DEPARTAMENTO,CUNDINAMARCA,4.40331639,-74.73146434,8500,14400,21000,28000,32200,http://hermes.invias.gov.co/carreteras/images/peajes/peaje.jpg,Girardot - Tocaima,9600,10900,3,CONCESIÓN DEVISAB,Norte - Sur // Sur Norte,Vía Chía – La Mesa – Girardot Km 16  Jurisdicción del Municipio de Tocaima,#815 Tigo - 018000953550,#815 Tigo - 018000953550,0,0,0,0,0,0,0,0,0,0,0,0,0,0,0,0,0,0,0,0,Categoría I Automóviles y Camperos,Categoría II Camiones y Buses 2 ejes pequeños,Categoría III Camiones y Buses 2 ejes grandes,Categoría IV 3 y 4 ejes,Categoría V 5 Ejes,Categoría VI 6 Ejes,Categoría VII, , , , , , , , , , , , , , , , , , , 
-73.59667358,4.194141805,3925,6510,7,133,PUENTE AMARILLO,CONCESION ANI,META,99,-73.59667358,3600,6150,8750,11750,13350,http://hermes.invias.gov.co/carreteras/images/peajes/peaje.jpg,Cumaral - Barranca de Upía,6150,3850,2,Concesión Vial del Oriente - COVIORIENTE S.A.S,Bidireccional,Conexión Anillo vial Cumaral Km 7+135,3168341260,3178942293  - 018000180818,0,0,0,0,0,0,0,0,0,0,0,0,0,0,0,0,0,0,0,0,"Automóviles, Camperos y Camionetas y microbuses con ejes de llanta sencilla de servicio público","Buses, busetas, microbuses con eje trasero de doble llanta",Camiones pequeños de dos (2) ejes,Camiones grandes de dos (2) ejes,Vehículos de tres (3) y cuatro (4) ejes,Vehículos de cinco (5) ejes,Vehículos de seis (6) ejes, , , , , , , , , , , , , , , , , , , 
-74.80894507,9.791365729,3941,8002,0,323,PUENTE PLATO,CONCESION ANI,MAGDALENA,101,-74.80894507,9200,34100,36600,0,0,http://hermes.invias.gov.co/carreteras/images/peajes/peaje.jpg,Plato – Pueblo Nuevo,11400,24100,2,Concesión (Yuma),Sur – Norte,KM 0+150  Vía Plata – Pueblo Nuevo,3165280403,018000945566 Opción 1,9000,8700,6500,0,0,0,0,0,0,0,0,0,2600,2700,0,0,0,0,0,0,Automóviles y Camperos,Camiones y Buses 2 ejes,3 y 4 Ejes,5 Ejes,6 Ejes, , , , , , , , ,Eje Grua,Eje Remolque,Eje Adicional, , ,CAT ESPECIAL E, , , , , , , 
-73.83476776,4.279934064,3997,4006,50,166,PUENTE QUETAME (NARANJAL),CONCESION ANI,CUNDINAMARCA,97,-73.83501604,10200,39400,45900,52900,58800,http://hermes.invias.gov.co/carreteras/images/peajes/peaje.jpg,Bogotá (El Portal) - Villavicencio,26600,20100,2,COVIANDINA S.A.S.,Occidente – Oriente // Oriente – Occidente,Caqueza – Guayabetal Km 44+700,3144360298 // 3123060332 - 3105851322,3143722765,0,0,0,500,0,0,0,500,500,0,0,0,0,500,500,500,500,500,0,0,Categoría I Automóviles y Camperos,Categoría II Camiones y Buses 2 ejes pequeños,Categoría III Camiones y Buses 2 ejes grandes,Categoría IV 3 y 4 Ejes,Categoría V 5 Ejes,Categoría VI 6 Ejes,Categoría VII, , , ,Categoría IEE,Categoría IEEE, , , , , , , ,Categoría IE,Categoría  IIE,Categoría IIIE,Categoría  IVE,Categoría VE, , 
-74.50132825,6.496649662,3952,6206,85,295,PUERTO BERRIO,CONCESION ANI,ANTIOQUIA,102,-74.50138816,8500,24800,27900,0,0,http://hermes.invias.gov.co/carreteras/images/peajes/puerto_berrio.jpg,Cisneros - Puerto Berrío (Incluye el Puente sobre el Río Magdalena),9300,19500,2,Concesión Autopistas del Río Magdalena,Aplica en ambos sentido de circulación,Vía Alto de Dolores - Puerto Berrío,3183729221,348326778,8700,8400,6400,2000,0,0,0,0,0,0,0,0,0,2100,2300,0,0,0,0,0,Automóviles y Camperos,Camiones y Buses 2 Ejes pequeños,Camiones y Buses 2 ejes grandes,3 y 4 ejes,5 ejes, , , , , , , , ,Eje grúa,Eje remolque,Eje adicional, , , ,Categoría especial IE,Categoría especial IIE, , , , , 
-74.95610546,10.96756325,3939,90A01,93,572,PUERTO COLOMBIA,CONCESION ANI,ATLANTICO,103,-74.95606254,14000,26800,83800,111700,124000,http://hermes.invias.gov.co/carreteras/images/peajes/peaje.jpg,Cartagena - Lomita Arena,21000,15300,2,Concesión Costera - Barranquilla - Cartagena,Ambos sentidos de circulación,Vía al Mar Km 93,3124572706 - 3157210245 o #212 Movistar / 3106303666 o #211 Claro / 3004510014 o #211 Tigo,018000977330 - 3114803629,0,0,0,0,0,0,0,0,0,0,0,0,0,0,0,0,0,0,0,0,Automóviles y Camperos,Buses de Transporte Público,Camiones 2 ejes Pequeños,Camiones 2 ejes Grandes,Camiones de 3 y 4 Ejes,5 Ejes,6 Ejes, , , , , , , , , , , , , , , , , , , 
-74.61139541,5.872598914,3808,6005,129,851,PUERTO TRIUNFO,INVIAS,ANTIOQUIA,98,1,12600,21600,43200,61600,61600,https://hermes.invias.gov.co/recursos/Fichas%20Peajes/3808.pdf,Santuario - Cruce Ruta 45 (Caño Alegre),19800,17300,5,,Sur – Norte,KM 129+900 RUTA 6005 Autopista  Medellin - Bogota,No cuenta con número,3208360300 - 3212059197,0,0,0,1000,0,0,1000,0,0,0,0,0,1000,0,1000,1000,1000,1000,1000,0,Categoría I,Categoría II,Categoría III,Categoría IV,Categoría V,Categoría VI,Categoría VII, , ,Categoría Especial VII, , , , , , , , ,Categoría Especial,Categoría Especial I,Categoría Especial II,Categoría Especial III,Categoría Especial IV,Categoría Especial V,Categoría Especial VI, 
-74.05008445,4.454170743,3973,40CN01,11,1051,PUESTO DE CONTROL BOQUERON II,CONCESION ANI,CUNDINAMARCA,104,-74.05008445,11900,47100,52900,58800,70500,http://hermes.invias.gov.co/carreteras/images/peajes/peaje.jpg,El Portal - El Antojo,35300,17800,2,COVIANDINA S.A.S.,Occidente – Oriente // Oriente – Occidente,Caqueza – Guayabetal Km 50+100,3123063223 - 3123030336 – 3105851322,3143722765,0,0,0,400,0,0,0,1600,6100,0,0,0,0,400,11500,400,0,0,0,0,Categoría I Automóviles y Camperos,Categoría II Camiones y Buses 2 eje pequeños,Categoría III Camiones y Buses 2 ejes grandes,Categoría IV 3 y 4 Ejes,Categoría V 5 Ejes,Categoría VI 6 Ejes,Categoría VII, , , ,Categoría IEE,Categoría IEEE, , , , , , , ,Categoría IE,Categoría IIE,Categoría IIIE, , , , 
-75.76376955,8.630659425,3921,2513,32,672,PURGATORIO,CONCESION ANI,CORDOBA,105,-75.76368712,13100,19300,34900,55600,64100,http://hermes.invias.gov.co/carreteras/images/peajes/peaje.jpg,Caucasia - Planeta Rica,19300,19300,2,Concesión Ruta al Mar,Aplica en ambos sentido de circulación,Via Planeta Rica – Montería Km 32+500 Recorrido 49 KMS,3116346239 - 3116346139,947911207,0,0,0,0,0,0,0,0,0,0,0,0,0,11300,15700,0,0,0,0,0,Automóviles y Camperos,Camiones y Buses 2 ejes Pequeños,Camiones y Buses 2 ejes Grandes,3 y 4 Ejes,5 Ejes,Categoría VI,Categoría VII, , , , , , ,Eje grúa,Eje remolque,Eje adicional, , , , , , , , , , 
-75.55537447,5.094251146,3933, ,0,0,QUIEBRA DE VELEZ,DEPARTAMENTO,CALDAS,5.09425115,-75.55537447,3100,33000,37600,0,0,http://hermes.invias.gov.co/carreteras/images/peajes/peaje.jpg,Tres Puertas - Quiebra de Vélez - Manizales,9600,0,3, , , , , ,0,0,0,0,0,0,0,0,0,0,0,0,0,0,0,0,0,0,0,0, , , , , , , , , , , , , , , , , , , , , , , , , , 
-74.28997543,4.627331188,3886, ,0,0,RAMAL,DEPARTAMENTO,CUNDINAMARCA,4.62733119,-74.28997543,11200,15600,44800,61600,70300,http://hermes.invias.gov.co/carreteras/images/peajes/peaje.jpg,Variante Soacha - La Mesa,13500,13500,3,CONCESIÓN DEVISAB,Occidente - Oriente // Oriente - Occidente,kilómetro 106 Via Mosquera - Ramal a Soacha,#815 Tigo – 018000953550,#815 Tigo – 018000953550,0,0,0,0,0,0,0,0,0,0,0,0,0,0,0,0,0,0,0,0,Categoría I Automóviles y Camperos,Categoría II Camiones y Buses 2 ejes pequeños,Categoría III Camiones y Buses 2 ejes grandes,Categoría IV 3 y 4 ejes,Categoría V 5 Ejes,Categoría VI 6 Ejes,Categoría VII, , , , , , , , , , , , , , , , , , , 
-73.47355215,9.431032001,3964,4901,17,600,RINCON HONDO,INVIAS,CESAR,9.43145278,1,9700,11900,12900,37000,42400,https://hermes.invias.gov.co/recursos/Fichas%20Peajes/3964.pdf,San Roque - La Paz,10300,11200,5,INVIAS,Aplica en ambos sentidos de circulación,Tramo que cubre:Vía Rincón Hondo - Agustín Codazzi,No cuenta con número,No cuenta con servicio,0,0,0,2900,42400,0,0,0,0,0,0,0,0,0,0,0,0,25900,0,0,"Automóviles, camperos y camionetas",Buses,Camiones pequeños de 2 ejes,Camiones grandes de 2 ejes,Camiones de 3 ejes,Camiones de 4 ejes,Camiones de 5 ejes,Camiones de 6 ejes, , , , , , , , , , , ,Categoría especial IE, , , ,Categoría especial VE, , 
-73.23110812,7.554331287,3823,45A08,51,350,RIO BLANCO,INVIAS,SANTANDER,106,1,8800,25700,29000,0,0,https://hermes.invias.gov.co/recursos/Fichas%20Peajes/3823.pdf,Río Negro - San Alberto,9700,20200,5,INVIAS,Norte – Sur,Vía Rio Negro – San Alberto Km  53+100,3124570764,No cuenta con servicio,9000,8700,6600,0,0,0,0,0,0,0,0,0,0,0,0,0,0,0,0,0,Automóviles y Camperos.,Camiones y Buses 2 ejes Pequeños.,Camiones y Buses 2 Ejes Grandes.,3 y 4 ejes.,5 ejes., , , , , , , , ,Eje Grúa.,Eje Remolque.,Eje adicional., , , , , , , , , , 
-74.17942941,4.698590601,3974,5008A,71,367,RIO BOGOTA,CONCESION ANI,CUNDINAMARCA,107,-74.1794455,8000,13900,23600,31900,34500,http://hermes.invias.gov.co/carreteras/images/peajes/peaje.jpg,Los Alpes - Madrid - Bogotá (Rio Bogotá),12000,10400,2,CONCESIÓN CCFC S.A,Oriente  - Occidente Bogotá  -  Faca,Peaje Río Bogotá – Facatativá – Villeta – Vianí – Cambao Km 0+700 Jurisdicción del Municipio de Mosquera,3792200 – 8930977,"300 2134184 - 310 3042774 - #235 Tigo, Movistar y Claro",0,0,0,200,0,0,0,0,0,0,0,0,200,200,200,200,200,200,200,200,Automóviles y Camperos,Camiones y Buses 2 ejes pequeños,Camiones y Buses 2 ejes grandes,3 y 4 ejes,5 Ejes,6 Ejes, , , , , , , , , , , , ,Eje especial,Eje especial Categoría I,Eje especial Categoría II,Eje especial Categoría III,Eje especial Categoría IV,Eje especial Categoría V,Eje especial Categoría VI, 
-76.27965619,4.149107168,3873,2302,13,600,RIO FRIO,INVIAS,VALLE DEL CAUCA,108,1,8600,25300,28400,0,0,https://hermes.invias.gov.co/recursos/Fichas%20Peajes/3873.pdf,Mediacanoa - Ansermanuevo,9300,19900,5,INVIAS,Norte – Sur  / Sur - Norte,Vía Mediacanoa - Ansermanuevo Km 13,3102454252,No cuenta con servicio,9000,8700,6600,0,0,0,0,0,0,0,0,6500,0,0,0,0,0,0,0,0,Automóviles y Camperos,Camiones y Buses 2 ejes pequeños,Camiones y Buses 2 ejes grandes,3 y 4 ejes,5 Ejes, , , , , , , , ,Eje Grúa,Eje Remolque,Eje Adicional, ,Eje Cañero, , , , , , , , 
-73.44054376,7.118249043,3972,6602,0,0,RIO SOGAMOSO,CONCESION ANI,SANTANDER,110,-73.44054376,8500,24800,27900,0,0,http://hermes.invias.gov.co/carreteras/images/peajes/rio_sogamoso.jpg,Cruce Ruta 45 (La Fortuna) - Lebrija,9300,19500,2,RUTA DEL CACAO,Aplica en ambos sentidos Tramo que cubre: Bucaramanga - Barrancabermeja – Yondó,Vía Fortuna - Bucaramanga  Km 14 + 040,317 573 8658,310 391 0901 – 317 765 0144,8700,8400,6400,2000,0,0,0,0,0,0,0,0,0,2100,2300,0,0,0,0,0,Automóviles y Camperos.,Camiones y Buses 2 ejes Pequeños,Camiones y Buses 2 Ejes Grandes,3 y  4 ejes,5 ejes, , , , , , , , ,Eje Grúa,Eje Remolque,Eje adicional, , , ,CAT ESPECIAL IE,CAT ESPECIAL IIE, , , , , 
-73.14940378,7.243267526,6805,45A08,13,100,RIONEGRO,EDISAN,SANTANDER,109,-73.15,7200,26000,29800,0,0, ,La cemento - Rionegro,8200,19600,3,DEPARTAMENTO,Norte - Sur,Vía Bucaramanga - Rionegro Km 13,6569259,No cuenta con servicio,,,,,,,,,,,,,,,,,,,,,Automóviles y Camperos,Camiones y Buses 2 ejes pequeños,Camiones y Buses 2 ejes grandes,3 y 4 ejes,5 ejes,,,,,,,,,,,,,,,,,,,,,
-76.38115644,3.643852209,6004,2505B,0,0,ROZO,INVIAS,VALLE DEL CAUCA,111,1,8900,37700,43400,0,0,https://hermes.invias.gov.co/recursos/Fichas%20Peajes/6004.pdf,Palmaseca - El Cerrito,10700,28900,5,INVIAS,Norte – Sur,Vía Palmaseca - Cerrito Km 17,No cuenta con número,No cuenta con servicio,10700,21200,6600,4600,,,,,,,,6600,,,4900,,,,,,Automóviles y Camperos,Camiones y Buses 2 ejes pequeños,Camiones y Buses 2 ejes grandes,3 y 4 ejes,5 Ejes,,,,,,,,,Eje Grúa,Eje Adicional Remolque,Eje Adicional,,Eje Cañero,,CAT IE,CAT IIE,,,,,
-74.75900513,10.79958164,3874,2516,64,807,SABANAGRANDE,CONCESION ANI,ATLANTICO,10.79958164,-74.75900513,8500,26400,30500,0,0,http://hermes.invias.gov.co/carreteras/images/peajes/peaje.jpg,Palmar de Varela - Barranquilla,9200,20200,2,Consorcio Ruta Caribe,Ambos sentidos de circulación,Vía Oriental Km 55,3006738048,3212057227,8700,8400,6000,2300,0,0,0,0,0,0,0,0,0,2600,3100,0,0,0,0,0,Automóviles y Camperos,Camiones y Buses 2 ejes Pequeños,Camiones y Buses 2 ejes Grandes,3 y 4 Ejes,5 Ejes,NO APLICA,NO APLICA, , , , , , ,EJE GRUA,EJE ADICIONAL REMOLQUE,EJE ADICIONAL, , , , , , , , , , 
-73.74466588,5.727864796,3953,45A05,66,500,SABOYA,INVIAS,BOYACÁ,112,1,8500,29600,34600,0,0,https://hermes.invias.gov.co/recursos/Fichas%20Peajes/3953.pdf,Ubaté - Puente Nacional,9200,23800,5,INVÍAS,Ambos sentidos de circulación,Vía Ubate Puente Nacional  Km 66+200 Jurisdicción Saboyá,Sin numero,Sin numero,10200,10000,7000,2300,0,0,0,0,0,0,0,0,0,2100,2300,0,0,0,0,0,Automóviles y Camperos,Camiones y Buses 2 ejes pequeños,Camiones y Buses 2 ejes grandes,3 y 4,5 ejes, , , , , , , , ,Eje Grúa,Eje Adicional Remolque,Eje Adicional, , , ,CAT ESPECIAL IE,CAT ESPECIAL IIE, , , , , 
-73.50115778,5.557684876,3884,6008,50,200,SACHICA,INVIAS,BOYACA,113,1,8600,25300,28400,0,0,https://hermes.invias.gov.co/recursos/Fichas%20Peajes/3884.pdf,Sáchica - Tunja,9300,19900,5,INVIAS,Ambos sentidos de circulación,Vía Chiquinquirá Tunja km 42+800 Jurisdicción Sáchica,3102455356,No cuenta con servicio,9000,8700,6600,0,0,0,0,0,0,0,0,0,0,0,0,0,0,0,0,0,Automóviles y Camperos,Camiones y Buses 2 ejes pequeños,Camiones y Buses 2 ejes grandes,3 y 4 ejes,5 Ejes, , , , , , , , ,Eje Grúa,Eje adicional remolque,Eje Adicional, , , , , , , , , , 
-75.59458114,5.052205665,3869,5005,9,177,SAN BERNARDO (TRINIDAD ll),CONCESION ANI,CALDAS,114,-75.59458114,10400,12600,30700,38400,44600,http://hermes.invias.gov.co/carreteras/images/peajes/peaje.jpg,Tres Puertas -La Manuela - Estación Uribe,12600,12600,2,CONCESIÓN AUTOPISTAS DEL CAFÉ,Ambos sentidos de circulación,Tres Puertas – Puente La Libertad Km. 9 + 200,(6) 3282720,3138176567 #850,0,0,0,3200,0,0,0,0,0,0,0,0,0,0,3300,3700,3900,0,0,0,Categoría I Automóviles y Camperos,Categoría II Camiones y Buses 2 ejes pequeños,Categoría III Camiones y Buses 2 ejes grandes,Categoría IV 3 y 4 Ejes,Categoría V 5 Ejes,Categoría 6 Ejes,Categorí VII, , , , , , , , , , , , ,Categoría Especial IE,Categoría Especial IIE,Categoría Especial IIIE, , , , 
-75.74238315,8.772659788,6804,3306,9,300,SAN CARLOS,CONSECION ANI,CORDOBA,106,-75.74,12800,18900,20200,29400,29500, ,Monteria - San Carlos,18900,18900,2,Concesión Ruta al Mar,Aplica en ambos sentidos,"Vía Montería - San Carlos ubicado sobre el Km, 9+700",Sin Numero,3216177100,0,0,0,0,0,0,0,0,0,0,0,0,0,,0,0,0,0,0,0,Automóviles - Camperos - Camionetas,Buses,Camiones Pequeños de 2 Ejes,Camiones Grandes de 2 Ejes,Camiones de 3 y 4 Ejes,Camiones de 5 ejes,Camiones de 6 Ejes,,,,,,,,,,,,,,,,,,,
-75.77560328,5.332438494,3931,2508,17,150,SAN CLEMENTE,INVIAS,CALDAS,115,1,8600,25300,28400,0,0,https://hermes.invias.gov.co/recursos/Fichas%20Peajes/3931.pdf,Cauyá - La Felisa,9300,19900,5,INVIAS,Ambos sentidos de circulación,Vía Cauyá - El Palo,3102454264,No cuenta con servicio,9000,8700,6600,0,0,0,0,0,0,0,0,0,0,0,0,0,0,0,0,0,Automoviles y camperos,Camiones y buses de 2 ejes pequeños,Camiones y buses de 2 ejes grandes,3 y 4 ejes,5 ejes, , , , , , , , ,Eje grúa,Eje remolque,Eje adicional, , , , , , , , , , 
-75.65404896,6.29706501,3877,0,0,0,SAN CRISTOBAL,CONCESION ANI,ANTIOQUIA,6.29706501,-75.65404896,16200,51900,62100,0,0,http://hermes.invias.gov.co/carreteras/images/peajes/peaje.jpg,Puente Aurrá - Medellín,18300,39900,2,DESARROLLO VIAL AL MAR SAS,Santa Fe de Antioquia - Medellín,"Oriente Occidente Km 39+600 Occidente Oriente Km 44+800, vía Santa Fe de Antioquia Medellín",(1) 2863300,3176676335   018000400016,6300,0,0,7900,0,0,0,0,0,0,0,0,0,8100,9200,0,0,0,0,0,Automóviles y Camperos,Camiones y Buses 2 Ejes pequeños,Camiones y Buses 2 Ejes grandes,3 y 4 ejes,5 ejes, , , , , , , , , , ,Eje Adicional, , , , , , , , , , 
-73.23863778,10.12172583,3889,4901,105,250,SAN DIEGO,INVIAS,CESAR,10.12172583,1,4800,6100,12800,37000,42000,https://hermes.invias.gov.co/recursos/Fichas%20Peajes/3889.pdf,San Roque - La Paz,5200,5700,5,INVIAS,Aplica en ambos sentidos de circulación,Tramo que cubre:Vía Aguztín Codazzi - San Diego,,,0,0,0,3300,0,0,0,0,0,0,0,0,0,3100,0,0,0,25900,0,0,"Automóviles, camperos y camionetas",Buses,Camiones pequeños de 2 ejes,Camiones grandes de 2 ejes,Camiones de 3 ejes,Camiones de 4 ejes,Camiones de 5 ejes, , , , , , , , , , , , ,Categoría especial IE, , , ,Categoría especial VE, , 
-73.08030867,6.617696089,3986,45A07,11,320,SAN GIL - CURITI,INVIAS,SANTANDER,33,1,8500,29600,34600,0,0,https://hermes.invias.gov.co/recursos/Fichas%20Peajes/3986.pdf,San Gil - Bucaramanga,9200,23800,5,Invias, ,VÍA BUCARAMANGA - SAN GIL,Sin Numero,Sin Numero,10200,10000,7000,6400,0,0,0,0,0,0,0,0,0,6000,0,0,0,0,0,0,Automóviles y Camperos.,Camiones y Buses 2 ejes Pequeños.,Camiones y Buses 2 ejes Grandes.,3 y 4 ejes.,5 ejes., , , , , , , , ,Eje Grúa.,Eje Remolque.,Eje adicional., , , ,CATEGORIA ESPECIAL IE., , , , , , 
-72.97554033,10.80001593,3981,4902,61,400,SAN JUAN,INVIAS,GUAJIRA,116,1,8800,25700,29000,35600,40800,https://hermes.invias.gov.co/recursos/Fichas%20Peajes/3981.pdf,Río Pereira - Buenavista,9700,20200,5,INVIAS,Aplica en ambos sentido de circulación,Ubicación: 61+400Tramo que cubre:Vía La Paz – Distracción,No cuenta con número,No cuenta con servicio,7100,6900,5200,2900,0,0,0,0,0,,0,0,0,2900,0,0,0,25900,0,0,"Automóviles, camperos y caminonetas",Buses,Camiones pequeños de 2 ejes,Camiones grandes de 2 ejes,Camiones de 3 ejes,Camiones de 4 ejes,Camiones de 5 ejes, , , , , , ,Eje grúa,Eje adicional remolque,Eje adicional, , , ,Categoría especial IE, , , ,Categoría especial VE, , 
-74.30188939,4.444164659,3893, ,0,0,SAN MIGUEL,DEPARTAMENTO,CUNDINAMARCA,4.44416466,-74.30188939,0,0,0,0,0,http://hermes.invias.gov.co/carreteras/images/peajes/peaje.jpg,Fusagasugá - Sibaté,0,0,3, , , , , ,0,0,0,0,0,0,0,0,0,0,0,0,0,0,0,0,0,0,0,0, , , , , , , , , , , , , , , , , , , , , , , , , , 
-75.39905269,9.863519254,3820,9005,21,497,SAN ONOFRE,CONCESION ANI,SUCRE,117,-75.39905269,13100,19300,34900,34900,55600,http://hermes.invias.gov.co/carreteras/images/peajes/san_onofre.jpg,San Onofre - María La Baja,19300,19300,2,Concesión Ruta al Mar,Norte – Sur,Vía San Onofre – Cruz del Viso Km 21+400 metros,3104320955,3216177100,0,0,0,0,64100,0,0,0,0,0,0,0,0,0,0,0,0,0,0,0,Automóviles y Camperos,Buses,Camiones y Buses 2 ejes Pequeños,Camiones y Buses 2 ejes Grandes,3 Ejes,4 Ejes,5 Ejes,6 Ejes, , , , , , , , , , , , , , , , , , 
-74.48647417,4.593993102,3888,4702,14,1007,SAN PEDRO,DEPARTAMENTO,CUNDINAMARCA,118,-74.48647417,10500,18200,39200,51000,58900,http://hermes.invias.gov.co/carreteras/images/peajes/peaje.jpg,La Mesa - Anapoima,11700,13500,3,CONCESIÓN DEVISAB,Norte - Sur // Sur - Norte,Chía - La Mesa - Girardot Km.61 Jurisdicción del Municipio de la Mesa,#815 Tigo  018000953550,#815 Tigo  018000953550,0,0,0,0,0,0,0,0,0,0,0,0,0,0,0,0,0,0,0,0,Categoría I Automóviles y Camperos,Categoría II Camiones y Buses 2 ejes pequeños,Categoría III Camiones y Buses 2 ejes grandes,Categoría IV 3 y 4 ejes,Categoría V 5 Ejes,Categoría VI 6 Ejes,Categoría VII, , , , , , , , , , , , , , , , , , , 
-72.9437707,4.678585529,3955,6511,0,0,SAN PEDRO,CONCESION ANI,CASANARE,118,-72.9437707,8400,12250,13700,0,0,http://hermes.invias.gov.co/carreteras/images/peajes/san_pedro.jpg,Barranca de Upía - Monterrey,4450,9600,2,Concesiónaria Vial del Oriente - COVIORIENTE S.A.S,Bidireccional,Villanueva - Monterrey Km.15+000,3168341260,3178942293  - 018000180818,8700,8400,6400,2300,0,0,0,0,0,0,0,0,0,2400,0,0,0,0,0,0,"Automóviles, Camperos y Camionetas y microbuses con ejes de llanta sencilla de servicio público","Buses, busetas, microbuses con eje trasero de doble llanta",Camiones pequeños de dos (2) ejes,Camiones grandes de dos (2) ejes,Vehículos de tres (3) y cuatro (4) ejes, , , , , , , , ,Eje Grúa,Eje Remolque,Eje Adicional, , , ,Categoría IE, , , , , , 
-75.461357,6.179659296,3880,0,0,0,SANTA ELENA,DEPARTAMENTO,ANTIOQUIA,6.17976424,-75.46150462,10000,24900,27500,0,0,http://hermes.invias.gov.co/carreteras/images/peajes/peaje.jpg,Vía Antigua a Rionegro,12100,22100,3,Concesión Túnel Aburrá - Oriente  S.A,Ambos sentidos de circulación,"Km 21+500 , Vía Medellín - Ríonegro",(4) 4446178 - 2228085 - 4602225,(4) 4446178 - 2228085 - 4602225,12900,0,0,0,0,0,0,0,0,0,0,0,0,0,0,0,0,0,0,0,"Automóviles , camperos y camionetas",Buses,Camiones pequeños de 2 Ejes,Camiones grandes de 2 Ejes,Camiones de 3 y 4 ejes, , , , , , , , , , ,Eje adicional, , , , , , , , , , 
-75.59882027,5.048648256,3929,29CL03,6,1092,SANT'AGUEDA,CONCESION ANI,CALDAS,119,-75.59882027,10400,12600,30700,38400,44600,http://hermes.invias.gov.co/carreteras/images/peajes/peaje.jpg,Chinchiná - La Manuela,12600,12600,2,CONCESIÓN AUTOPISTAS DEL CAFE,Ambos sentidos de circulación,Cruce Guayacanes – La Manuela Km 6,(6) 3282720,3138176567 #850,0,0,0,0,0,0,0,0,0,0,0,0,0,0,0,0,0,0,0,0,Categoría I Automóviles y Camperos,Categoría II Camiones y Buses 2 ejes pequeños,Categoría III Camiones y Buses 2 ejes grandes,Categoría IV 3 y 4 ejes,Categoría V 5 Ejes,Categoría VI 6  Ejes,Categoría VII, , , , , , , , , , , , , , , , , , , 
-74.18504777,4.780359837,3943,5008,135,913,SIBERIA,CONCESION ANI,CUNDINAMARCA,120,-74.18504777,10000,16000,28100,37700,41400,http://hermes.invias.gov.co/carreteras/images/peajes/peaje.jpg,Villeta - Bogotá,14300,12000,2,CONCESIÓN SABANA DE OCCIDENTE,Ambos sentidos de circulación,Bogotá (El Cortijo) – Siberia – La Punta – El Vino – Villeta,5939260 – 3185577768 – 3102613190 - 3002149460,5939260,0,0,0,5600,5200,7200,0,0,0,0,0,0,0,5700,8200,6700,9200,0,0,0,"Categoría I Automóviles, Camionetas y Camperos",Categoría II Buses y Busetas,Categoría III Camiones pequeños 2 ejes,Categoría IV Camiones grandes 2 ejes,Categoría V Camiones de 3 y 4 ejes,Categoría VI Camiones de 5 ejes,Categoría VII Camiones de 6 o más ejes,"Categoría VIII Autos, Camionetas y Camperos (S. Publico)",Categoría IX Buses/Busetas (S. publico), , , , , , , , , , ,"Categoría IE Autos, Camionetas, Camperos (S. particular)","Categoría IIE Buses, Busetas (S. particular)",Categoría IIE Camión pequeño 2 ejes,Categoría IVE Camión grande 2 ejes, , , 
-73.93608378,4.841655636,9606,50 CN 03,2,0,SOPO,CONCESION ANI,CUNDINAMARCA,0,0,9600,37600,51200,51600,0, ,Meusa,15100,25500,2,PERIMETRAL ORIENTAL DE BOGOTÁ S.A.S,Sur - Norte,El Salitre - Sopó,313 4609939,310 2399451 - #765,8700,8400,6400,,,,,,,,,,,,,,,,,,Categoría I,Categoría II,Categoría III,Categoría IV,Categoría V,Categoría VI,,,,,,,,Eje Grúa,Eje Adicional Remolque,Eje Adicional,,,,,,,,,,
-75.59999513,5.391597876,3949,2508,63,434,SUPIA,CONCESION ANI,CALDAS,121,-75.59999513,8300,24400,27400,0,0,http://hermes.invias.gov.co/carreteras/images/peajes/supia.jpg,La Felisa - La Pintada,9000,19200,2,Concesión Pacífico Tres,Ambos sentidos de circulación,Vía La Felisa – La Pintada,3219738470,LINEA GRATUITA: 018000423780 LINEA CELULAR: 3219738470,8700,8400,6400,0,0,0,0,0,0,0,0,6700,0,0,0,0,0,0,0,0,Categoría I Automóviles y Camperos,Categoría II Camiones y Buses 2 ejes pequeños,Categoría III Camiones y Buses 2 ejes grandes,Categoría IV 3 y 4 ejes,Categoría V 5 Ejes, , , , , , , , ,Categoría Eje Grúa,Categoría Eje Remolque,Categoría Eje Adicional, , , , , , , , , , 
-75.61660194,4.939047486,3870,2902,20,762,TARAPACA I,CONCESION ANI,RISARALDA,122,-75.61656814,11500,15200,38100,50400,56300,http://hermes.invias.gov.co/carreteras/images/peajes/peaje.jpg,La Romelia - Río Campo Alegre,15200,15200,2,CONCESIÓN AUTOPISTAS DEL CAFE,Ambos sentidos de circulación,Vía Pereira – Manizales Km. 20 + 200,(6) 3282720,3138176567 #850,0,0,0,0,0,0,0,0,0,0,0,0,0,0,0,0,0,0,0,0,Categoría I Automóviles y Camperos,Categoría II Camiones y Buses 2 ejes pequeños,Categoría III Camiones y Buses 2 ejes grandes,Categoría IV 3 y 4 ejes,Categoría V 5 Ejes,Categoría VI 6 Ejes,Categoría VII, , , , , , , , , , , , , , , , , , , 
-75.61868222,4.950098818,3897,29RSC,24,754,TARAPACA II,CONCESION ANI,RISARALDA,123,-75.61877556,11500,15200,38100,50400,56300,http://hermes.invias.gov.co/carreteras/images/peajes/peaje.jpg,Intersección Jazmín - Estación de  Servicio Chinchiná,15200,15200,2,Concesión Autopistas del Café,Aplica en ambos sentidos de circulación,Vía Pereira – Chinchiná PR29RSC Km 24 + 100,(6) 3282720,3138176567 #850,0,0,0,0,0,0,0,0,0,0,0,0,0,0,0,0,0,0,0,0,Categoría I Automóviles y Camperos,Categoría II 2 ejes dobles pequeños,Categoría III 2 ejes Busetas y Buses,Categoría IV 2 ejes grandes Dobles Camiones,Categoría V 3 y 4 ejes,Categoría VI 5 Ejes,Categoría VI 6 Ejes, , , , , , , , , , , , , , , , , , , 
-75.39352519,7.5892704,3838,2512,1,300,TARAZA,INVIAS,ANTIOQUIA,124,1,8800,25700,29000,0,0,https://hermes.invias.gov.co/recursos/Fichas%20Peajes/3838.pdf,Tarazá - Caucasia,9700,20200,5,INVIAS,Sur – Norte,"KM 01+200 RUTA 2512, Via Medellin - La Costa",3102463888,3208360300 - 3212059197,9000,8700,6600,5800,0,0,0,0,0,0,0,0,0,5400,0,0,0,0,0,0,"Automóviles, camperos, camionetas",Buses,Camiones de dos ejes pequeños,Camiones de dos ejes grandes,Camiones de tres y cuatro ejes,Camiones de cinco ejes,Camiones de seis ejes, , , , , , , , , , , , , , , , , , , 
-74.33666433,10.97718815,3841,9007,50,881,TASAJERA,DEPARTAMENTO,MAGDALENA,125,-74.33666433,10100,37200,42100,0,0,http://hermes.invias.gov.co/carreteras/images/peajes/peaje.jpg,Barranquilla - Santa Marta,12000,28100,3,Concesión (Barranquilla -Ciénaga),Norte – Sur,KM 50 Vía Barranquilla – Santa Marta,3106328761,3106303030 - 3106328761,15900,0,0,0,0,0,0,0,0,0,0,0,0,0,0,0,0,0,0,0,Automóviles y Camperos,Buses y Busetas 2 Ejes Dobles,Camiones de 3.5 Ton.,Camiones de 5 Ton.,3 Ejes, , , , , , , , , , ,Eje Adicional, , , , , , , , , , 
-75.43301628,6.399637273,3812,2510,0,0,TRAPICHE,DEPARTAMENTO,ANTIOQUIA,6.39963727,-75.43301628,9200,15700,26500,34900,39000,http://hermes.invias.gov.co/carreteras/images/peajes/peaje.jpg,Medellìn - Hoyo Rico,10200,11100,3,Concesión Hatovial S.A.S,Norte,Km 4  Vía alterna Girardota Hatillo,2892224 – 3108992859 - 01-8000-522-44-77,(054) 312 11 99-325 06 60,0,0,0,0,0,0,0,0,0,0,0,0,0,0,0,0,0,0,0,0,Automóviles y Camperos,Camiones y Buses 2 Ejes pequeños,Camiones y Buses 2 Ejes grandes,3 y 4 ejes,5 ejes,6 ejes,VII, , , , , , , , , , , , , , , , , , , 
-74.1684538,10.60894721,3916,4518,48,678,TUCURINCA,CONCESION ANI,MAGDALENA,128,-74.1684538,8500,28800,33400,0,0,http://hermes.invias.gov.co/carreteras/images/peajes/peaje.jpg,Paso Nacional por Aracataca - Ye de Ciénaga,9400,21900,2,Concesión (Yuma),Norte – Sur,KM 50 Rio Ariguani – Ye de Cienaga,3176486588,018000945566 Opción 1,10300,9800,7000,0,0,0,0,0,0,0,0,0,0,0,0,11100,14600,16800,0,0,Automóviles y Camperos,Camiones y Buses 2 ejes pequeños,Camiones y Buses 2 ejes grandes,3 y 4 Ejes,5 Ejes, , , , , , , , ,Eje Grua,Eje Adicional Remolque,Eje Adicional, , , , , , , , , , 
-76.53681132,2.701690113,4805,2504,30,1053,TUNIA,INVIAS,CAUCA,129,1,8900,37700,43400,0,0,https://hermes.invias.gov.co/recursos/Fichas%20Peajes/4805.pdf,Popayán - Jamundí,10700,28900,5,INVIAS,Sur – Norte // Norte – Sur,Kilometro 31+100 Vía Panamericana Popayan – Cali,No cuenta con número,No cuenta con servicio,10700,21200,6600,4600,,,,,,,,6200,,,5500,,,,,,Categoría I Automóviles y camperos,Categoría II Camiones y buses 2 ejes pequeños,Categoría III Camiones y buses 2 ejes grandes,Categoría IV 3 y 4 ejes,Categoría V 5 ejes,,,,,,,,,Categoría Eje Grúa,Categoría Eje Adicional Remolque,Categoría Eje Adicional,,Categoría Eje Cañero,,Categoría Especial IE,Categoría Especial IIE,,,,,
-75.44341614,10.35697545,3883,9005,96,420,TURBACO,CONCESION ANI,BOLIVAR,130,-75.44353683,3100,0,0,0,0,http://hermes.invias.gov.co/carreteras/images/peajes/peaje.jpg,Cruz del Viso - Cartagena,7600,9300,2,Ruta Caribe,Ambos sentidos de circulación,Km 60+00 y 68+00 Ruta 9005 Troncal de Occidente,3212057230,3212057227,0,0,0,0,0,0,0,0,0,0,0,0,0,0,3100,0,0,0,0,0,Automóviles y Camperos,Camiones y Buses 2 ejes Pequeños,Camiones y Buses 2 ejes Grandes, , , , , , , , , , , , , , , , , , , , , , , 
-73.27843908,5.6568966,3813,5502,11,1055,TUTA,CONCESION ANI,BOYACÁ,131,-73.27835861,8000,14150,16650,0,0,http://hermes.invias.gov.co/carreteras/images/peajes/peaje.jpg,Tunja - Duitama,4350,11400,2,Concesión Briceño - Tunja - Sogamoso,Ambos sentidos de circulación,Via Tunja – Paipa Km 12+200 Jurisdiccion Combita,3174340959,3174422284     /  3174422284,8200,6800,5700,4200,0,0,0,0,0,0,0,0,3000,3100,4300,4500,0,0,0,0,"Automóviles, Camperos y Camionetas","Buses, Busetas y  Camiones de 2 ejes",Camiones de tres y cuatro ejes,Vehículos de carga de cinco (5) ejes,Vehículos de carga de seis (6) ejes, , , , , , , , ,Eje grúa,Eje adicional remolque,Eje adicional, , ,CAT ESPECIAL,CAT ESPECIAL IE,CAT ESPECIAL IIE, , , , , 
-74.03146987,4.855379831,3860,45A04,5,627,UNISABANA,CONCESION ANI,CUNDINAMARCA,126,-74.03148118,0,0,16450,21250,23550,http://hermes.invias.gov.co/carreteras/images/peajes/peaje.jpg,Bogotá - Ubaté,0,0,2,CONCESIÓN  ACCENORTE,Sur – Norte,Bogotá – Albarracín Km 5+600,6760652  Opc 1 - 3125194023 – 3125196546,676 06 52,0,0,0,0,0,0,0,0,0,0,0,0,0,0,0,0,0,0,0,0,"Categoría I Automóviles, Camperos y Camionetas",Categoría II Buses,Categoría III Camiones pequeños de 2 ejes,Categoría IV Camiones grandes de 2 ejes,Categoría V Camiones de 3 y 4 ejes,Categoría VI Camiones de 5 ejes,Categoría VII Camiones de 6 ejes o más, , , , , , , , , , , , , ,Eje IIE, , , , , 
-72.32187624,11.60651378,3894, ,0,0,URIBIA,MUNICIPIO,GUAJIRA,11.60643229,-72.32193594,0,0,0,0,0,http://hermes.invias.gov.co/carreteras/images/peajes/peaje.jpg,Cuatrovias - Uribia,0,0,6, , , , , ,0,0,0,0,0,0,0,0,0,0,0,0,0,0,0,0,0,0,0,0, , , , , , , , , , , , , , , , , , , , , , , , , , 
-73.43086954,10.2597059,3798,8003,87,540,VALENCIA,CONCESION ANI,CESAR,133,-73.43076226,8100,25100,28500,0,0,http://hermes.invias.gov.co/carreteras/images/peajes/peaje.jpg,Pueblo Nuevo – Bosconia – Valledupar,9000,19500,2,Yuma concecionaria,Sur – Norte,Km 87 Vía Pueblo Nuevo – Valledupar,3165280411,018000945566 Opción 1,9000,8700,6500,0,0,0,0,0,0,0,0,0,0,0,0,9900,12700,14400,0,0,Automóviles y camperos,Camiones y buses 2 ejes pequeños,Camiones y buses 2 ejes grandes,3 y 4 Ejes,5 Ejes, , , , , , , , ,Eje grúa,Eje adicional remolque,Eje adicional, , , , , , , , , , 
-75.4788908,6.170653887,3879, ,0,0,VARIANTE LAS PALMAS,DEPARTAMENTO,ANTIOQUIA,6.17084869,-75.47870768,0,0,0,0,0,http://hermes.invias.gov.co/carreteras/images/peajes/peaje.jpg,Las Palmas - Aeropuerto,0,0,3, , , , , ,0,0,0,0,0,0,0,0,0,0,0,0,0,0,0,0,0,0,0,0, , , , , , , , , , , , , , , , , , , , , , , , , , 
-73.44817429,4.261064058,3842,6510,29,557,VERACRUZ,CONCESION ANI,META,135,-73.44817429,6700,6650,9600,12900,14450,http://hermes.invias.gov.co/carreteras/images/peajes/peaje.jpg,Cumaral - Barranca de Upía,6650,4250,2,Concesión Vial del Oriente - COVIORIENTE S.A.S,Bidireccional,Vía Cumaral – Paratebueno Km 29+555,3168341260,3178942293  - 018000180818,0,0,0,0,0,0,0,0,0,0,0,0,0,0,0,0,0,0,0,0,"Automóviles, Camperos y Camionetas y microbuses con ejes de llanta sencilla de servicio público","Buses, busetas, microbuses con eje trasero de doble llanta",Camiones pequeños de dos (2) ejes,Camiones grandes de dos (2) ejes,Vehículos de tres (3) y cuatro (4) ejes,Vehículos de cinco (5) ejes,Vehículos de seis (6) ejes, , , , , , , , , , , , , , , , , , , 
-75.59407236,5.968901178,3856,2509,38,824,VERSALLES (PRIMAVERA),CONCESION ANI,ANTIOQUIA,96,-75.59404508,8300,24400,27400,0,0,http://hermes.invias.gov.co/carreteras/images/peajes/primavera.jpg,La Pintada - Primavera,9000,19200,2,CONCESION LA PINTADA S.A.S. (ODINSA),Sur – Norte,"KM 38+800 RUTA  2509, Via Medellin - La Pintada",3173673153,3185018100  - #272 Claro Movistar y Tigo,8700,8400,6400,0,0,0,0,0,0,0,0,0,0,0,0,0,0,0,0,0,Categoría I Automóviles y Camperos,Categoría II Camiones y Buses 2 Ejes,Categoría III - 3 ejes,Categoría IV - 4 ejes,Categoría V - 5 ejes, , , , , , , , ,Categoría Eje Grúa,Categoría Eje Remolque,Categoría Eje adicional, ,Categoría Eje Cañero, , , , , , , , 
-76.46003183,3.151233082,5607,2504,89,1314,VILLARICA,INVIAS,CAUCA,136,1,8900,37700,43400,0,0,https://hermes.invias.gov.co/recursos/Fichas%20Peajes/5607.pdf,Popayán - Jamundí,10700,28900,5,INVIAS,Sur – Norte // Norte – Sur,Kilometro 91 Vía Panamericana Jurisdicción del Municipio de Villa Rica,No cuenta con número,No cuenta con servicio,10700,21200,6600,4600,,,,,,,,6600,,,5500,,,,,,Categoría I Automóviles y camperos,Categoría II Camiones y buses 2 ejes pequeños,Categoría III Camiones y buses 2 ejes grandes,Categoría IV 3 y 4 ejes,Categoría V 5 ejes,,,,,,,,,Categoría Eje Grúa,Categoría Eje Remolque,Categoría Eje Adicional,,Categoría Eje Cañero,,Categoría Especial IE,Categoría Especial IIE,,,,,
-74.45699184,6.294713993,3920,4511,9,300,ZAMBITO,INVIAS,SANTANDER,138,1,10900,38800,45600,0,0,https://hermes.invias.gov.co/recursos/Fichas%20Peajes/3920.pdf,Río Ermitaño - La Lizama,13800,32400,5,Concesionaria Ruta Del Sol,Aplica en ambos sentido de circulación,Vía Rio Ermitaño La Lizama Km 6,3165298178, ,10200,10000,7300,0,0,0,0,0,0,0,0,0,0,0,0,0,0,0,0,0,Automóviles y Camperos.,Camiones y Buses 2 ejes.,3 ejes.,4 ejes.,5 ejes, , , , , , , , ,Eje Grúa.,Eje Remolque.,Eje adicional., , , , , , , , , , 
